id,name,alt_name,region,country,latitude,longitude,type,GEOIDFQ,PLACENAME,AREATYPE,COMMENT
BORO1,Aleutians East Borough,,,,,,borough,0500000US02013,Aleutians East Borough,County,
BORO10,City and Borough of Sitka,,,,,,borough,0500000US02220,Sitka City and Borough,County,
BORO11,Petersburg Borough,,,,,,borough,0500000US02195,Petersburg Borough,County,
BORO12,City and Borough of Wrangell,,,,,,borough,0500000US02275,Wrangell City and Borough,County,
BORO13,Matanuska-Susitna Borough,,,,,,borough,0500000US02170,Matanuska-Susitna Borough,County,
BORO14,City and Borough of Yakutat,,,,,,borough,0500000US02282,Yakutat City and Borough,County,
BORO15,Kenai Peninsula Borough,,,,,,borough,0500000US02122,Kenai Peninsula Borough,County,
BORO16,Haines Borough,,,,,,borough,0500000US02100,Haines Borough,County,
BORO17,Bristol Bay Borough,,,,,,borough,0500000US02060,Bristol Bay Borough,County,
BORO18,Denali Borough,,,,,,borough,0500000US02068,Denali Borough,County,
BORO19,Municipality of Anchorage,,,,,,borough,0500000US02020,Anchorage Municipality,County,
BORO2,Lake and Peninsula Borough,,,,,,borough,0500000US02164,Lake and Peninsula Borough,County,
BORO3,North Slope Borough,,,,,,borough,0500000US02185,North Slope Borough,County,
BORO4,Kodiak Island Borough,,,,,,borough,0500000US02150,Kodiak Island Borough,County,
BORO5,Municipality of Skagway,,,,,,borough,0500000US02230,Skagway Municipality,County,
BORO6,Northwest Arctic Borough,,,,,,borough,0500000US02188,Northwest Arctic Borough,County,
BORO7,Ketchikan Gateway Borough,,,,,,borough,0500000US02130,Ketchikan Gateway Borough,County,
BORO8,Fairbanks North Star Borough,,,,,,borough,0500000US02090,Fairbanks North Star Borough,County,
BORO9,City and Borough of Juneau,,,,,,borough,0500000US02110,Juneau City and Borough,County,
CENS10,Copper River Census Area,,,,,,census_area,0500000US02066,Copper River Census Area,County,
CENS11,Chugach Census Area,,,,,,census_area,0500000US02063,Chugach Census Area,County,
CENS2,Southeast Fairbanks Census Area,,,,,,census_area,0500000US02240,Southeast Fairbanks Census Area,County,
CENS3,Dillingham Census Area,,,,,,census_area,0500000US02070,Dillingham Census Area,County,
CENS4,Hoonah-Angoon Census Area,,,,,,census_area,0500000US02105,Hoonah-Angoon Census Area,County,
CENS5,Kusilvak Census Area,,,,,,census_area,0500000US02158,Kusilvak Census Area,County,
CENS6,Nome Census Area,,,,,,census_area,0500000US02180,Nome Census Area,County,
CENS7,Prince of Wales-Hyder Census Area,,,,,,census_area,0500000US02198,Prince of Wales-Hyder Census Area,County,
CENS8,Yukon-Koyukuk Census Area,,,,,,census_area,0500000US02290,Yukon-Koyukuk Census Area,County,
CENS9,Bethel Census Area,,,,,,census_area,0500000US02050,Bethel Census Area,County,
AK1,Afognak,Agw’aneq,Alaska,US,58.0078,-152.768,community,1600000US0201560,Aleneva CDP,Census designated place,
AK100,Dry Creek,,Alaska,US,63.7,-144.567,community,1600000US0220020,Dry Creek CDP,Census designated place,
AK102,Eagle,Tthee T'äwdlenn,Alaska,US,64.788,-141.2,community,1600000US0220380,Eagle city,Incorporated place,
AK104,Eagle Village,,Alaska,US,64.7805,-141.114,community,1600000US0220600,Eagle Village CDP,Census designated place,
AK105,Edna Bay,,Alaska,US,55.9489,-133.662,community,1600000US0220970,Edna Bay city,Incorporated place,
AK106,Eek,Ekvicuaq,Alaska,US,60.2189,-162.024,community,1600000US0221040,Eek city,Incorporated place,
AK108,Egegik,Igyagiiq,Alaska,US,58.2155,-157.376,community,1600000US0221150,Egegik city,Incorporated place,
AK11,Allakaket,Aalaa Kkaakk’et,Alaska,US,66.5656,-152.646,community,1600000US0201860,Allakaket city,Incorporated place,
AK112,Ekwok,Iquaq,Alaska,US,59.3497,-157.475,community,1600000US0221810,Ekwok city,Incorporated place,
AK114,Elfin Cove,,Alaska,US,58.1944,-136.343,community,1600000US0222140,Elfin Cove CDP,Census designated place,
AK115,Elim,Neviarcaurluq,Alaska,US,64.6175,-162.26,community,1600000US0222250,Elim city,Incorporated place,
AK117,Emmonak,Imangaq,Alaska,US,62.7778,-164.523,community,1600000US0222910,Emmonak city,Incorporated place,
AK12,Ambler,Ivisaappaat,Alaska,US,67.0861,-157.851,community,1600000US0201970,Ambler city,Incorporated place,
AK120,Ester,,Alaska,US,64.8472,-148.014,community,1600000US0223460,Ester CDP,Census designated place,
AK122,Excursion Inlet,,Alaska,US,58.417,-135.441,community,1600000US0223900,Excursion Inlet CDP,Census designated place,
AK124,Fairbanks,,Alaska,US,64.8378,-147.716,community,1600000US0224230,Fairbanks city,Incorporated place,
AK125,False Pass,Isanax̂,Alaska,US,54.8548,-163.407,community,1600000US0224660,False Pass city,Incorporated place,
AK126,Ferry,,Alaska,US,64.0172,-149.117,community,1600000US0225220,Ferry CDP,Census designated place,
AK128,Flat,,Alaska,US,62.4536,-158.007,community,1600000US0225880,Flat CDP,Census designated place,
AK13,Anaktuvuk Pass,Anaqtuuvak / Naqsraq,Alaska,US,68.1433,-151.736,community,1600000US0202080,Anaktuvuk Pass city,Incorporated place,
AK130,Fort Yukon,Gwichyaa Zheh,Alaska,US,66.5647,-145.274,community,1600000US0226760,Fort Yukon city,Incorporated place,
AK131,Fox,,Alaska,US,64.958,-147.618,community,1600000US0226870,Fox CDP,Census designated place,
AK132,Gakona,Ggax Kuna’,Alaska,US,62.3019,-145.302,community,1600000US0227420,Gakona CDP,Census designated place,
AK133,Galena,Notaalee Denh,Alaska,US,64.7333,-156.927,community,1600000US0227530,Galena city,Incorporated place,
AK134,Gambell,Sivuqaq,Alaska,US,63.7797,-171.741,community,1600000US0227640,Gambell city,Incorporated place,
AK137,Glennallen,,Alaska,US,62.1092,-145.546,community,1600000US0228740,Glennallen CDP,Census designated place,
AK138,Golovin,Cingik / Siŋik,Alaska,US,64.5433,-163.029,community,1600000US0229180,Golovin city,Incorporated place,
AK139,Goodnews Bay,Mamterat,Alaska,US,59.1186,-161.589,community,1600000US0229290,Goodnews Bay city,Incorporated place,
AK14,Anchor Point,,Alaska,US,59.7766,-151.831,community,1600000US0203110,Anchor Point CDP,Census designated place,
AK140,Grayling,Sixno' Xidakagg,Alaska,US,62.9062,-160.077,community,1600000US0230060,Grayling city,Incorporated place,
AK141,Gulkana,C'uul C'ena',Alaska,US,62.2714,-145.382,community,1600000US0230500,Gulkana CDP,Census designated place,
AK142,Gustavus,,Alaska,US,58.4125,-135.738,community,1600000US0230940,Gustavus city,Incorporated place,
AK143,Haines,Deishú,Alaska,US,59.2358,-135.445,community,1600000US0231050,Haines CDP,Census designated place,
AK146,Healy,,Alaska,US,63.8578,-148.966,community,1600000US0232150,Healy CDP,Census designated place,
AK147,Healy Lake,Mendees Cheeg,Alaska,US,63.9441,-144.755,community,1600000US0232310,Healy Lake CDP,Census designated place,
AK15,Anchorage,Dgheyaytnu,Alaska,US,61.1817,-149.993,community,0500000US02020,Anchorage Municipality,County,
AK150,Hollis,,Alaska,US,55.4879,-132.663,community,1600000US0232810,Hollis CDP,Census designated place,
AK151,Holy Cross,Ingirraller / Deloy Chet,Alaska,US,62.1994,-159.771,community,1600000US0233030,Holy Cross city,Incorporated place,
AK152,Homer,,Alaska,US,59.6425,-151.548,community,1600000US0233140,Homer city,Incorporated place,
AK153,Hoonah,Xunaa / Gaaw Yat’aḵ Aan,Alaska,US,58.11,-135.444,community,1600000US0233360,Hoonah city,Incorporated place,
AK154,Hooper Bay,Naparyaarmiut,Alaska,US,61.5311,-166.097,community,1600000US0233470,Hooper Bay city,Incorporated place,
AK155,Hope,,Alaska,US,60.9203,-149.64,community,1600000US0233580,Hope CDP,Census designated place,
AK156,Houston,,Alaska,US,61.6302,-149.818,community,1600000US0233800,Houston city,Incorporated place,
AK157,Hughes,Hut’odlee Kkaakk’et,Alaska,US,66.0488,-154.255,community,1600000US0233910,Hughes city,Incorporated place,
AK158,Huslia,Ts’aateyhdenaadekk’onh Denh,Alaska,US,65.6986,-156.4,community,1600000US0234350,Huslia city,Incorporated place,
AK159,Hydaburg,Higdáa G̱ándlaay,Alaska,US,55.208,-132.827,community,1600000US0234460,Hydaburg city,Incorporated place,
AK16,Anderson,,Alaska,US,64.3441,-149.187,community,1600000US0203220,Anderson city,Incorporated place,
AK160,Hyder,,Alaska,US,55.9169,-130.025,community,1600000US0234570,Hyder CDP,Census designated place,
AK162,Igiugig,Igyaraq,Alaska,US,59.3278,-155.895,community,1600000US0234790,Igiugig CDP,Census designated place,
AK164,Iliamna,Illiamna,Alaska,US,59.7536,-154.817,community,1600000US0235120,Iliamna CDP,Census designated place,
AK169,Ivanof Bay,,Alaska,US,55.8996,-159.507,community,1600000US0235890,Ivanof Bay CDP,Census designated place,
AK173,Kachemak,,Alaska,US,59.6488,-151.451,community,1600000US0236540,Kachemak city,Incorporated place,
AK174,Kake,Ḵéex̱ʼ,Alaska,US,56.9758,-133.947,community,1600000US0236770,Kake city,Incorporated place,
AK176,Kaktovik,Qaaktuġvik,Alaska,US,70.1131,-143.6623,community,1600000US0236990,Kaktovik city,Incorporated place,
AK177,Kalifornsky,Unhghenesditnu,Alaska,US,60.4412,-151.198,community,1600000US0237250,Kalifornsky CDP,Census designated place,
AK178,Upper Kalskag,Qalqaq,Alaska,US,61.5391,-160.306,community,1600000US0281320,Upper Kalskag city,Incorporated place,
AK179,Kaltag,Ggaał Doh,Alaska,US,64.3272,-158.722,community,1600000US0237430,Kaltag city,Incorporated place,
AK18,Angoon,Aangóon,Alaska,US,57.5033,-134.584,community,1600000US0203440,Angoon city,Incorporated place,
AK181,Karluk,Kal’ut,Alaska,US,57.5719,-154.455,community,1600000US0237540,Karluk CDP,Census designated place,
AK182,Kasaan,Gasa'áan,Alaska,US,55.5389,-132.401,community,1600000US0237650,Kasaan city,Incorporated place,
AK185,Kasigluk,Kassigluq,Alaska,US,60.8955,-162.521,community,1600000US0237975,Kasigluk CDP,Census designated place,
AK186,Kasilof,,Alaska,US,60.3375,-151.274,community,1600000US0238090,Kasilof CDP,Census designated place,
AK188,Kenai,Shk'ituk't,Alaska,US,60.5544,-151.258,community,1600000US0238420,Kenai city,Incorporated place,
AK189,Kenny Lake,,Alaska,US,61.7379,-144.945,community,1600000US0238910,Kenny Lake CDP,Census designated place,
AK19,Aniak,Anyaraq,Alaska,US,61.5783,-159.522,community,1600000US0203550,Aniak city,Incorporated place,
AK191,Ketchikan,Kichx̱áan,Alaska,US,55.3422,-131.646,community,1600000US0238970,Ketchikan city,Incorporated place,
AK192,Kiana,Katyaaq,Alaska,US,66.975,-160.423,community,1600000US0239300,Kiana city,Incorporated place,
AK194,King Cove,Agdaaĝux̂,Alaska,US,55.0629,-162.31,community,1600000US0239410,King Cove city,Incorporated place,
AK196,King Salmon,,Alaska,US,58.6883,-156.661,community,1600000US0239630,King Salmon CDP,Census designated place,
AK197,Kipnuk,Qipnek,Alaska,US,59.9389,-164.041,community,1600000US0239740,Kipnuk CDP,Census designated place,
AK198,Kivalina,Kivaliñiq,Alaska,US,67.7269,-164.533,community,1600000US0239960,Kivalina city,Incorporated place,
AK2,Akhiok,Kasukuak,Alaska,US,56.9455,-154.17,community,1600000US0200650,Akhiok city,Incorporated place,
AK200,Klawock,Lawaak,Alaska,US,55.5522,-133.096,community,1600000US0240400,Klawock city,Incorporated place,
AK202,Klukwan,Tlákw.aan,Alaska,US,59.3991,-135.894,community,1600000US0240510,Klukwan CDP,Census designated place,
AK203,Knik,,Alaska,US,61.4578,-149.729,community,1600000US0240645,Knik-Fairview CDP,Census designated place,
AK204,Kobuk,Laugviik,Alaska,US,66.9072,-156.881,community,1600000US0240840,Kobuk city,Incorporated place,
AK205,Kodiak,Sun'aq,Alaska,US,57.79,-152.407,community,1600000US0240950,Kodiak city,Incorporated place,
AK206,Kokhanok,Qarr’unaq,Alaska,US,59.4426,-154.761,community,1600000US0241280,Kokhanok CDP,Census designated place,
AK208,Koliganek,Qalirneq,Alaska,US,59.7286,-157.284,community,1600000US0241500,Koliganek CDP,Census designated place,
AK209,Kongiganak,Kangirnaq,Alaska,US,59.9647,-162.877,community,1600000US0241610,Kongiganak CDP,Census designated place,
AK21,Anvik,Gitr’ingith Chagg,Alaska,US,62.6561,-160.207,community,1600000US0203880,Anvik city,Incorporated place,
AK210,Kotlik,Qerrulliik,Alaska,US,63.0341,-163.553,community,1600000US0241720,Kotlik city,Incorporated place,
AK211,Kotzebue,Qikiqtaġruk,Alaska,US,66.8983,-162.597,community,1600000US0241830,Kotzebue city,Incorporated place,
AK212,Koyuk,Kuuyuk,Alaska,US,64.9319,-161.157,community,1600000US0241940,Koyuk city,Incorporated place,
AK213,Koyukuk,Meneelghaadze’ T’oh,Alaska,US,64.8802,-157.701,community,1600000US0242050,Koyukuk city,Incorporated place,
AK214,Kupreanof,,Alaska,US,56.8153,-133.006,community,1600000US0242160,Kupreanof city,Incorporated place,
AK217,Kwethluk,Kuiggluk,Alaska,US,60.8122,-161.436,community,1600000US0242380,Kwethluk city,Incorporated place,
AK218,Kwigillingok,Kuigilnguq,Alaska,US,59.8644,-163.134,community,1600000US0242490,Kwigillingok CDP,Census designated place,
AK22,Arctic Village,Vashrąįį K'ǫǫ,Alaska,US,68.1269,-145.538,community,1600000US0203990,Arctic Village CDP,Census designated place,
AK220,Lake Minchumina,Menchuh Mene’,Alaska,US,63.8828,-152.312,community,1600000US0242820,Lake Minchumina CDP,Census designated place,
AK221,Larsen Bay,Uyaqsaq,Alaska,US,57.54,-153.979,community,1600000US0243040,Larsen Bay city,Incorporated place,
AK226,Levelock,Liivlek,Alaska,US,59.115,-156.857,community,1600000US0243810,Levelock CDP,Census designated place,
AK228,Lime Village,Hekdichen Hdakaq',Alaska,US,61.3564,-155.436,community,1600000US0244030,Lime Village CDP,Census designated place,
AK229,Livengood,,Alaska,US,65.5244,-148.545,community,1600000US0244580,Livengood CDP,Census designated place,
AK23,Atka,Atx̂ax̂,Alaska,US,52.191,-174.189,community,1600000US0204210,Atka city,Incorporated place,
AK230,Loring,,Alaska,US,55.603,-131.632,community,1600000US0245020,Loring CDP,Census designated place,
AK231,Lower Kalskag,Qalqaq,Alaska,US,61.5122,-160.358,community,1600000US0245460,Lower Kalskag city,Incorporated place,
AK234,Manley Hot Springs,Too Naaleł Denh,Alaska,US,65.0011,-150.634,community,1600000US0246780,Manley Hot Springs CDP,Census designated place,
AK235,Manokotak,Manuquutaq,Alaska,US,58.9796,-159.053,community,1600000US0246890,Manokotak city,Incorporated place,
AK237,Marshall,Masserculleq,Alaska,US,61.8778,-162.081,community,1600000US0247000,Marshall city,Incorporated place,
AK24,Atmautluak,Atmaulluaq,Alaska,US,60.8641,-162.2723,community,1600000US0204430,Atmautluak CDP,Census designated place,
AK240,McCarthy,,Alaska,US,61.4333,-142.922,community,1600000US0245790,McCarthy CDP,Census designated place,
AK241,McGrath,Tochak’,Alaska,US,62.9564,-155.596,community,1600000US0246010,McGrath city,Incorporated place,
AK245,Mekoryuk,Mikuryar,Alaska,US,60.388,-166.185,community,1600000US0247990,Mekoryuk city,Incorporated place,
AK246,Mendeltna,,Alaska,US,62.0487,-146.5386,community,1600000US0248200,Mendeltna CDP,Census designated place,
AK247,Mentasta Lake,Mendaesde,Alaska,US,62.9212,-143.792,community,1600000US0248540,Mentasta Lake CDP,Census designated place,
AK248,Metlakatla,Maxłakxaała,Alaska,US,55.1292,-131.572,community,1600000US0248870,Metlakatla CDP,Census designated place,
AK25,Atqasuk,,Alaska,US,70.4694,-157.396,community,1600000US0204500,Atqasuk city,Incorporated place,
AK250,Minto,,Alaska,US,65.1496,-149.3504,community,1600000US0249530,Minto CDP,Census designated place,
AK251,Moose Pass,,Alaska,US,60.4876,-149.367,community,1600000US0250190,Moose Pass CDP,Census designated place,
AK254,Mountain Village,Asaacaryaraq,Alaska,US,62.0884,-163.72,community,1600000US0251180,Mountain Village city,Incorporated place,
AK256,Nabesna,Naambia Niign Daacheeg,Alaska,US,62.3719,-143.009,community,1600000US0251960,Nabesna CDP,Census designated place,
AK258,Naknek,Nakniq,Alaska,US,58.7283,-157.014,community,1600000US0252060,Naknek CDP,Census designated place,
AK259,Nanwalek,English Bay,Alaska,US,59.354,-151.916,community,1600000US0252210,Nanwalek CDP,Census designated place,
AK26,Attu,,Alaska,US,52.9365,173.24,community,1600000US0204670,Attu Station CDP,Census designated place,
AK261,Napakiak,Naparyarraq,Alaska,US,60.6967,-161.952,community,1600000US0252390,Napakiak city,Incorporated place,
AK263,Napaskiak,Napaskiaq,Alaska,US,60.708,-161.766,community,1600000US0252720,Napaskiak city,Incorporated place,
AK265,Nelchina,,Alaska,US,61.996,-146.8203,community,1600000US0252915,Nelchina CDP,Census designated place,
AK266,Nelson Lagoon,Niilsanam Alĝuudaa,Alaska,US,56.0012,-161.201,community,1600000US0252940,Nelson Lagoon CDP,Census designated place,
AK267,Nenana,Toghotili,Alaska,US,64.5638,-149.093,community,1600000US0253050,Nenana city,Incorporated place,
AK269,New Stuyahok,Cetuyaraq,Alaska,US,59.4528,-157.312,community,1600000US0253710,New Stuyahok city,Incorporated place,
AK270,Newhalen,Nuuriileng,Alaska,US,59.72,-154.897,community,1600000US0253270,Newhalen city,Incorporated place,
AK271,Newtok,Niugtaq,Alaska,US,60.9427,-164.629,community,1600000US0253820,Newtok CDP,Census designated place,
AK272,Nightmute,Negtemiut,Alaska,US,60.4794,-164.724,community,1600000US0253930,Nightmute city,Incorporated place,
AK273,Nikiski,,Alaska,US,60.6394,-151.334,community,1600000US0254050,Nikiski CDP,Census designated place,
AK274,Nikolaevsk,,Alaska,US,59.8109,-151.623,community,1600000US0254085,Nikolaevsk CDP,Census designated place,
AK275,Nikolai,Nikolai,Alaska,US,63.0133,-154.375,community,1600000US0254150,Nikolai city,Incorporated place,
AK276,Nikolski,Chalukax̂,Alaska,US,52.938,-168.868,community,1600000US0254260,Nikolski CDP,Census designated place,
AK278,Ninilchik,,Alaska,US,60.0514,-151.669,community,1600000US0254480,Ninilchik CDP,Census designated place,
AK279,Noatak,Nuataam Kuuŋa,Alaska,US,67.5711,-162.965,community,1600000US0254700,Noatak CDP,Census designated place,
AK280,Nome,Sitŋasuaq,Alaska,US,64.5107,-165.4447,community,1600000US0254920,Nome city,Incorporated place,
AK281,Nondalton,Nundaltin,Alaska,US,59.9736,-154.846,community,1600000US0255030,Nondalton city,Incorporated place,
AK282,Noorvik,Nuurvik,Alaska,US,66.8383,-161.033,community,1600000US0255140,Noorvik city,Incorporated place,
AK283,North Pole,,Alaska,US,64.7511,-147.349,community,1600000US0255910,North Pole city,Incorporated place,
AK284,Northway,K’ehtthiign,Alaska,US,62.9616,-141.937,community,1600000US0256220,Northway CDP,Census designated place,
AK287,Nuiqsut,Nuiqsat,Alaska,US,70.2175,-150.976,community,1600000US0256320,Nuiqsut city,Incorporated place,
AK288,Nulato,Noolaaghe Doh,Alaska,US,64.7194,-158.103,community,1600000US0256350,Nulato city,Incorporated place,
AK289,Nunam Iqua,Sheldon Point,Alaska,US,62.5336,-164.841,community,1600000US0256600,Nunam Iqua city,Incorporated place,
AK290,Nunapitchuk,Nunapicuar,Alaska,US,60.8969,-162.459,community,1600000US0256680,Nunapitchuk city,Incorporated place,
AK293,Old Harbor,Nuniaq,Alaska,US,57.2028,-153.304,community,1600000US0257340,Old Harbor city,Incorporated place,
AK296,Oscarville,Kuiggayagaq,Alaska,US,60.7273,-161.79,community,1600000US0258330,Oscarville CDP,Census designated place,
AK298,Ouzinkie,Uusenkaa,Alaska,US,57.9236,-152.496,community,1600000US0258550,Ouzinkie city,Incorporated place,
AK3,Akiachak,Akiacuar,Alaska,US,60.9094,-161.431,community,1600000US0200760,Akiachak CDP,Census designated place,
AK300,Palmer,,Alaska,US,61.5997,-149.113,community,1600000US0258660,Palmer city,Incorporated place,
AK303,Paxson,,Alaska,US,63.033,-145.4979,community,1600000US0259320,Paxson CDP,Census designated place,
AK304,Pedro Bay,,Alaska,US,59.7914,-154.098,community,1600000US0259540,Pedro Bay CDP,Census designated place,
AK305,Pelican,K'udeis'x̱'e,Alaska,US,57.9608,-136.227,community,1600000US0259650,Pelican city,Incorporated place,
AK307,Perryville,Perry-q,Alaska,US,55.9119,-159.166,community,1600000US0260200,Perryville CDP,Census designated place,
AK308,Petersburg,Séet Ká,Alaska,US,56.8125,-132.955,community,1600000US0260310,Petersburg CDP,Census designated place,
AK309,Petersville,,Alaska,US,62.373,-150.7332,community,1600000US0260460,Petersville CDP,Census designated place,
AK31,Beaver,Ts'aahudaaneekk'onh Denh,Alaska,US,66.3594,-147.396,community,1600000US0205750,Beaver CDP,Census designated place,
AK311,Pilot Point,Agisaq,Alaska,US,57.5641,-157.579,community,1600000US0260640,Pilot Point city,Incorporated place,
AK312,Pilot Station,Tuutalgaq,Alaska,US,61.9389,-162.875,community,1600000US0260750,Pilot Station city,Incorporated place,
AK313,Pitkas Point,Negeqliim Painga,Alaska,US,62.0328,-163.288,community,1600000US0260860,Pitkas Point CDP,Census designated place,
AK314,Platinum,Arviiq,Alaska,US,59.013,-161.816,community,1600000US0261080,Platinum city,Incorporated place,
AK315,Point Baker,,Alaska,US,56.3528,-133.621,community,1600000US0261190,Point Baker CDP,Census designated place,
AK316,Point Hope,Tikiġaq,Alaska,US,68.34801,-166.734,community,1600000US0261630,Point Hope city,Incorporated place,
AK317,Point Lay,Kali,Alaska,US,69.7574,-163.051,community,1600000US0261700,Point Lay CDP,Census designated place,
AK319,Port Alexander,,Alaska,US,56.2497,-134.644,community,1600000US0262510,Port Alexander city,Incorporated place,
AK320,Port Alsworth,,Alaska,US,60.2025,-154.313,community,1600000US0262620,Port Alsworth CDP,Census designated place,
AK322,Port Graham,Paluwik,Alaska,US,59.3514,-151.83,community,1600000US0263280,Port Graham CDP,Census designated place,
AK323,Port Heiden,Masrriq,Alaska,US,56.9566,-158.645,community,1600000US0263390,Port Heiden city,Incorporated place,
AK324,Port Lions,Masiqsirraq,Alaska,US,57.8675,-152.882,community,1600000US0263610,Port Lions city,Incorporated place,
AK327,Port Protection,,Alaska,US,56.3127,-133.602,community,1600000US0263870,Port Protection CDP,Census designated place,
AK329,Portage Creek,,Alaska,US,58.9006,-157.714,community,1600000US0262285,Portage Creek CDP,Census designated place,
AK331,Prudhoe Bay,,Alaska,US,70.2366,-148.38,community,1600000US0264380,Prudhoe Bay CDP,Census designated place,
AK332,Quinhagak,Kuinerraq,Alaska,US,59.7489,-161.916,community,1600000US0264600,Quinhagak city,Incorporated place,
AK334,Rampart,Dleł Taaneets,Alaska,US,65.5049,-150.17,community,1600000US0264820,Rampart CDP,Census designated place,
AK335,Red Devil,,Alaska,US,61.7611,-157.313,community,1600000US0264930,Red Devil CDP,Census designated place,
AK337,Ruby,Tl'aa'ologhe,Alaska,US,64.7394,-155.487,community,1600000US0265590,Ruby city,Incorporated place,
AK338,Russian Mission,Iqugmiut,Alaska,US,61.7856,-161.325,community,1600000US0265700,Russian Mission city,Incorporated place,
AK340,Saint Mary's,Negeqliq,Alaska,US,62.053,-163.166,community,1600000US0266140,St. Mary's city,Incorporated place,
AK341,Saint Michael,Taciq,Alaska,US,63.478,-162.039,community,1600000US0266360,St. Michael city,Incorporated place,
AK342,Saint Paul,Tanax̂ Amix̂,Alaska,US,57.1221,-170.276,community,1600000US0266470,St. Paul city,Incorporated place,
AK343,Salamatof,,Alaska,US,60.5878,-151.326,community,1600000US0266510,Salamatof CDP,Census designated place,
AK344,Salcha,Soł Chaget,Alaska,US,64.5288,-146.899,community,1600000US0266550,Salcha CDP,Census designated place,
AK347,Sand Point,,Alaska,US,55.3397,-160.497,community,1600000US0267020,Sand Point city,Incorporated place,
AK349,Savoonga,Sivunga,Alaska,US,63.6904,-170.481,community,1600000US0267460,Savoonga city,Incorporated place,
AK350,Saxman,,Alaska,US,55.3183,-131.596,community,1600000US0267570,Saxman city,Incorporated place,
AK351,Scammon Bay,Marayaarmiut,Alaska,US,61.8428,-165.582,community,1600000US0267680,Scammon Bay city,Incorporated place,
AK352,Selawik,Siiḷivik / Akuliġaq,Alaska,US,66.6039,-160.007,community,1600000US0268230,Selawik city,Incorporated place,
AK353,Seldovia,Angagkitaqnuuq,Alaska,US,59.438,-151.711,community,1600000US0268340,Seldovia city,Incorporated place,
AK354,Seward,Qutalleq,Alaska,US,60.1043,-149.442,community,1600000US0268560,Seward city,Incorporated place,
AK355,Shageluk,Edixi,Alaska,US,62.6822,-159.562,community,1600000US0268670,Shageluk city,Incorporated place,
AK356,Shaktoolik,Saktuliq,Alaska,US,64.35,-161.183,community,1600000US0268890,Shaktoolik city,Incorporated place,
AK358,Shishmaref,Qigiqtaq,Alaska,US,66.2567,-166.072,community,1600000US0269770,Shishmaref city,Incorporated place,
AK359,Shungnak,Isiŋnaq / Nuurviuraq,Alaska,US,66.888,-157.136,community,1600000US0270100,Shungnak city,Incorporated place,
AK36,Bethel,Mamterilleq,Alaska,US,60.7922,-161.756,community,1600000US0206520,Bethel city,Incorporated place,
AK360,Sitka,Sheet'ká,Alaska,US,57.053,-135.33,community,0500000US02220,Sitka City and Borough,County,
AK361,Skagway,,Alaska,US,59.4583,-135.314,community,1600000US0270760,Skagway CDP,Census designated place,
AK362,Skwentna,,Alaska,US,61.9649,-151.158,community,1600000US0270870,Skwentna CDP,Census designated place,
AK363,Slana,Stl’aa Caegge,Alaska,US,62.707,-143.9697,community,1600000US0270930,Slana CDP,Census designated place,
AK365,Sleetmute,Cellitemiut,Alaska,US,61.7025,-157.17,community,1600000US0271090,Sleetmute CDP,Census designated place,
AK366,Soldotna,,Alaska,US,60.4878,-151.058,community,1600000US0271640,Soldotna city,Incorporated place,
AK368,South Naknek,Qinuyang,Alaska,US,58.7155,-156.998,community,1600000US0272190,South Naknek CDP,Census designated place,
AK37,Bettles,Kk’odlel T’odegheelenh Denh,Alaska,US,66.9185,-151.5162,community,1600000US0206630,Bettles city,Incorporated place,
AK372,Stebbins,Tapraq,Alaska,US,63.5222,-162.288,community,1600000US0272960,Stebbins city,Incorporated place,
AK373,Sterling,,Alaska,US,60.5381,-150.758,community,1600000US0273070,Sterling CDP,Census designated place,
AK374,Stevens Village,Denyeet,Alaska,US,66.0063,-149.091,community,1600000US0273290,Stevens Village CDP,Census designated place,
AK375,Stony River,Gidighuyghatno’ Xidochagg Qay / K'qizaghetnu,Alaska,US,61.7831,-156.588,community,1600000US0273400,Stony River CDP,Census designated place,
AK377,Sunrise,,Alaska,US,60.8921,-149.425,community,1600000US0273950,Sunrise CDP,Census designated place,
AK38,Big Delta,,Alaska,US,64.1525,-145.842,community,1600000US0206850,Big Delta CDP,Census designated place,
AK381,Takotna,Tochotno’,Alaska,US,62.9886,-156.064,community,1600000US0274610,Takotna CDP,Census designated place,
AK382,Talkeetna,K'dalkitnu,Alaska,US,62.3239,-150.109,community,1600000US0274830,Talkeetna CDP,Census designated place,
AK383,Tanacross,Taats’altęy,Alaska,US,63.378,-143.356,community,1600000US0275050,Tanacross CDP,Census designated place,
AK384,Tanana,Hohudodetlaatl Denh,Alaska,US,65.1719,-152.079,community,1600000US0275160,Tanana city,Incorporated place,
AK386,Tatitlek,Taatiilaaq,Alaska,US,60.8647,-146.679,community,1600000US0275380,Tatitlek CDP,Census designated place,
AK387,Tazlina,Tezdlen Na’,Alaska,US,62.0305,-145.416,community,1600000US0275480,Tazlina CDP,Census designated place,
AK39,Big Lake,,Alaska,US,61.5378,-149.824,community,1600000US0207070,Big Lake CDP,Census designated place,
AK390,Teller,Tala,Alaska,US,65.2636,-166.361,community,1600000US0275930,Teller city,Incorporated place,
AK392,Tenakee Springs,Tʼanag̱eey / Tlaagoowu Aan,Alaska,US,57.7808,-135.219,community,1600000US0276260,Tenakee Springs city,Incorporated place,
AK393,Tetlin,Teełąy,Alaska,US,63.1373,-142.5208,community,1600000US0276590,Tetlin CDP,Census designated place,
AK396,Thorne Bay,,Alaska,US,55.7274,-132.471,community,1600000US0277140,Thorne Bay city,Incorporated place,
AK398,Togiak,Tuyuryaq,Alaska,US,59.0619,-160.376,community,1600000US0277690,Togiak city,Incorporated place,
AK399,Tok,,Alaska,US,63.3366,-142.985,community,1600000US0277800,Tok CDP,Census designated place,
AK4,Akiak,Akiaq,Alaska,US,60.9122,-161.214,community,1600000US0200870,Akiak city,Incorporated place,
AK401,Toksook Bay,Nunakauyaq,Alaska,US,60.5303,-165.102,community,1600000US0278240,Toksook Bay city,Incorporated place,
AK403,Tonsina,,Alaska,US,61.6558,-145.175,community,1600000US0278350,Tonsina CDP,Census designated place,
AK404,Tuluksak,Tuulkessaaq,Alaska,US,61.1025,-160.962,community,1600000US0278790,Tuluksak CDP,Census designated place,
AK405,Tuntutuliak,Tuntutuliaq,Alaska,US,60.3397,-162.669,community,1600000US0279120,Tuntutuliak CDP,Census designated place,
AK406,Tununak,Tununeq,Alaska,US,60.5855,-165.256,community,1600000US0279230,Tununak CDP,Census designated place,
AK407,Twin Hills,Ingricuar,Alaska,US,59.0792,-160.275,community,1600000US0279780,Twin Hills CDP,Census designated place,
AK408,Tyonek,Qaggeyshlat,Alaska,US,61.0681,-151.137,community,1600000US0279890,Tyonek CDP,Census designated place,
AK409,Ugashik,Ugaasaq,Alaska,US,57.513,-157.397,community,1600000US0280100,Ugashik CDP,Census designated place,
AK414,Unalakleet,Uŋalaqłiit,Alaska,US,63.873,-160.788,community,1600000US0280660,Unalakleet city,Incorporated place,
AK415,Unalaska,Iluulux̂,Alaska,US,53.8733,-166.533,community,1600000US0280770,Unalaska city,Incorporated place,
AK418,Utqiaġvik,Barrow,Alaska,US,71.2905,-156.789,community,1600000US0281920,Utqiag?vik city,Incorporated place,
AK42,Birch Creek,Łiteet'aii,Alaska,US,66.2687,-145.824,community,1600000US0207620,Birch Creek CDP,Census designated place,
AK421,Valdez,Suacit,Alaska,US,61.1369,-146.3471,community,1600000US0282200,Valdez city,Incorporated place,
AK422,Venetie,Vįįhtąįį,Alaska,US,67.0139,-146.419,community,1600000US0282420,Venetie CDP,Census designated place,
AK423,Wainwright,Ulġuniq,Alaska,US,70.6369,-160.038,community,1600000US0282750,Wainwright city,Incorporated place,
AK424,Wales,Kiŋigin,Alaska,US,65.6097,-168.0876,community,1600000US0282860,Wales city,Incorporated place,
AK426,Wasilla,,Alaska,US,61.5814,-149.439,community,1600000US0283080,Wasilla city,Incorporated place,
AK427,Whale Pass,,Alaska,US,56.1,-133.167,community,1600000US0284000,Whale Pass city,Incorporated place,
AK428,White Mountain,Nasirvik,Alaska,US,64.6813,-163.406,community,1600000US0284070,White Mountain city,Incorporated place,
AK429,Whittier,,Alaska,US,60.773,-148.684,community,1600000US0284510,Whittier city,Incorporated place,
AK430,Willow,,Alaska,US,61.7472,-150.037,community,1600000US0285280,Willow CDP,Census designated place,
AK431,Wiseman,,Alaska,US,67.41,-150.107,community,1600000US0285610,Wiseman CDP,Census designated place,
AK432,Womens Bay,,Alaska,US,57.7099,-152.586,community,1600000US0285680,Womens Bay CDP,Census designated place,
AK435,Yakutat,Yaakwdáat,Alaska,US,59.5469,-139.727,community,1600000US0286490,Yakutat CDP,Census designated place,
AK436,Two Rivers,,Alaska,US,64.8767,-147.0384,community,1600000US0279830,Two Rivers CDP,Census designated place,
AK440,Fort Greely,,Alaska,US,63.9731,-145.7181,community,1600000US0226100,Fort Greely CDP,Census designated place,
AK442,Eielson Air Force Base,,Alaska,US,64.6656,-147.1014,community,1600000US0221370,Eielson AFB CDP,Census designated place,
AK47,Brevig Mission,Sitaisaq,Alaska,US,65.3347,-166.489,community,1600000US0208740,Brevig Mission city,Incorporated place,
AK48,Buckland,Kaŋiq,Alaska,US,65.9797,-161.123,community,1600000US0209600,Buckland city,Incorporated place,
AK5,Akutan,Achan-ingiiga,Alaska,US,54.1385,-165.778,community,1600000US0201090,Akutan city,Incorporated place,
AK50,Cantwell,Yidateni Na’,Alaska,US,63.3917,-148.951,community,1600000US0210150,Cantwell CDP,Census designated place,
AK54,Central,,Alaska,US,65.5724,-144.803,community,1600000US0211690,Central CDP,Census designated place,
AK57,Chalkyitsik,Jałgiitsik,Alaska,US,66.6544,-143.722,community,1600000US0211800,Chalkyitsik CDP,Census designated place,
AK6,Alakanuk,Alarneq,Alaska,US,62.6889,-164.615,community,1600000US0201200,Alakanuk city,Incorporated place,
AK61,Chefornak,Cevvʼarneq / Caputnguaq,Alaska,US,60.1607,-164.271,community,1600000US0212680,Chefornak city,Incorporated place,
AK63,Chenega Bay,Caniqaq,Alaska,US,60.0746,-148.003,community,1600000US0212970,Chenega CDP,Census designated place,
AK64,Chevak,Cevʼaq,Alaska,US,61.5278,-165.586,community,1600000US0213230,Chevak city,Incorporated place,
AK65,Chickaloon,Nay’dini’aa Na’,Alaska,US,61.7967,-148.463,community,1600000US0213340,Chickaloon CDP,Census designated place,
AK66,Chicken,,Alaska,US,64.0733,-141.936,community,1600000US0213450,Chicken CDP,Census designated place,
AK67,Chignik,Cirniq,Alaska,US,56.2953,-158.402,community,1600000US0213550,Chignik city,Incorporated place,
AK68,Chignik Lagoon,Nanwarnaq,Alaska,US,56.3104,-158.5361,community,1600000US0213670,Chignik Lagoon CDP,Census designated place,
AK69,Chignik Lake,Igyaraq,Alaska,US,56.2552,-158.7696,community,1600000US0213780,Chignik Lake CDP,Census designated place,
AK7,Alatna,Alaasuq,Alaska,US,66.5542,-152.7019,community,1600000US0201305,Alatna CDP,Census designated place,
AK70,Chiniak,,Alaska,US,57.617,-152.2166,community,1600000US0213860,Chiniak CDP,Census designated place,
AK71,Chisana,,Alaska,US,62.0671,-142.049,community,1600000US0213890,Chisana CDP,Census designated place,
AK72,Chistochina,Tsiis Tl’edze’ Caegge,Alaska,US,62.565,-144.665,community,1600000US0214000,Chistochina CDP,Census designated place,
AK73,Chitina,Tsedi Na',Alaska,US,61.5158,-144.437,community,1600000US0214110,Chitina CDP,Census designated place,
AK75,Chuathbaluk,Curarpalek,Alaska,US,61.5726,-159.235,community,1600000US0214330,Chuathbaluk city,Incorporated place,
AK77,Circle,Danzhit Khànląįį,Alaska,US,65.8255,-144.061,community,1600000US0214880,Circle CDP,Census designated place,
AK79,Clam Gulch,,Alaska,US,60.2311,-151.394,community,1600000US0215320,Clam Gulch CDP,Census designated place,
AK8,Aleknagik,Alaqnaqiq,Alaska,US,59.273,-158.618,community,1600000US0201420,Aleknagik city,Incorporated place,
AK80,Clark's Point,Saguyaq,Alaska,US,58.8441,-158.551,community,1600000US0215430,Clark's Point city,Incorporated place,
AK83,Coffman Cove,,Alaska,US,56.0119,-132.8296,community,1600000US0216360,Coffman Cove city,Incorporated place,
AK84,Cohoe,,Alaska,US,60.3671,-151.3,community,1600000US0216420,Cohoe CDP,Census designated place,
AK85,Cold Bay,,Alaska,US,55.1858,-162.721,community,1600000US0216530,Cold Bay city,Incorporated place,
AK86,College,,Alaska,US,64.8582,-147.808,community,1600000US0216750,College CDP,Census designated place,
AK87,Cooper Landing,,Alaska,US,60.4906,-149.833,community,1600000US0217190,Cooper Landing CDP,Census designated place,
AK88,Copper Center,Tl’aticae’e,Alaska,US,61.955,-145.305,community,1600000US0217300,Copper Center CDP,Census designated place,
AK89,Cordova,,Alaska,US,60.5428,-145.757,community,1600000US0217410,Cordova city,Incorporated place,
AK91,Craig,Sháan Séet,Alaska,US,55.4764,-133.148,community,1600000US0217740,Craig city,Incorporated place,
AK92,Crooked Creek,Qipcarpak,Alaska,US,61.87,-158.111,community,1600000US0217850,Crooked Creek CDP,Census designated place,
AK94,Deering,Ipnatchiaq,Alaska,US,66.0755,-162.717,community,1600000US0218510,Deering city,Incorporated place,
AK95,Delta Junction,,Alaska,US,64.0377,-145.732,community,1600000US0218620,Delta Junction city,Incorporated place,
AK96,Dillingham,Curyung,Alaska,US,59.0397,-158.457,community,1600000US0218950,Dillingham city,Incorporated place,
AK97,Diomede,Iŋaliq,Alaska,US,65.7648,-168.911,community,1600000US0219060,Diomede city,Incorporated place,
AK98,Dot Lake,Kelt’aaddh Menn’,Alaska,US,63.663,-144.049,community,1600000US0219720,Dot Lake CDP,Census designated place,
AK487,Susitna,,Alaska,US,61.57861,-150.609051,community,1600000US0274340,Susitna CDP,Census designated place,
AK488,Alcan Border,,Alaska,US,62.685631,-141.125333,community,1600000US0201390,Alcan Border CDP,Census designated place,
AK489,Aleneva,,Alaska,US,58.004623,-152.882483,community,1600000US0201560,Aleneva CDP,Census designated place,
AK490,Badger,,Alaska,US,64.805794,-147.403888,community,1600000US0205000,Badger CDP,Census designated place,
AK491,Bear Creek,,Alaska,US,60.1838786509902,-149.388613199976,community,1600000US0205585,Bear Creek CDP,Census designated place,
AK492,Beluga,,Alaska,US,61.1848971678011,-151.034967549034,community,1600000US0206245,Beluga CDP,Census designated place,
AK493,Buffalo Soapstone,,Alaska,US,61.6683758222176,-149.12165836103,community,1600000US0209657,Buffalo Soapstone CDP,Census designated place,
AK494,Butte,,Alaska,US,61.5416745390065,-149.03633324702,community,1600000US0209710,Butte CDP,Census designated place,
AK495,Chase,,Alaska,US,62.4250653005809,-150.124472554245,community,1600000US0212350,Chase CDP,Census designated place,
AK496,Chena Ridge,,Alaska,US,64.822784145061,-147.976405236217,community,1600000US0212920,Chena Ridge CDP,Census designated place,
AK497,Coldfoot,,Alaska,US,67.251042189194,-150.174373175422,community,1600000US0216630,Coldfoot CDP,Census designated place,
AK498,Covenant Life,,Alaska,US,59.400312169574,-136.002684880433,community,1600000US0217670,Covenant Life CDP,Census designated place,
AK499,Crown Point,,Alaska,US,60.4288603056793,-149.37073191973,community,1600000US0217960,Crown Point CDP,Census designated place,
AK500,Deltana,,Alaska,US,64.0404406350045,-145.518234630497,community,1600000US0218675,Deltana CDP,Census designated place,
AK501,Denali Park,,Alaska,US,63.6387769214946,-148.789516985341,community,1600000US0218805,Denali Park CDP,Census designated place,
AK502,Diamond Ridge,,Alaska,US,59.681376082414,-151.622593964408,community,1600000US0218925,Diamond Ridge CDP,Census designated place,
AK503,Dot Lake Village,,Alaska,US,63.6567844118242,-144.048406894792,community,1600000US0219750,Dot Lake Village CDP,Census designated place,
AK504,Eureka Roadhouse,,Alaska,US,61.9374674826658,-147.168759272918,community,1600000US0223720,Eureka Roadhouse CDP,Census designated place,
AK505,Evansville,,Alaska,US,66.9237732221992,-151.506064007722,community,1600000US0223790,Evansville CDP,Census designated place,
AK506,Farm Loop,,Alaska,US,61.6353844493236,-149.148188283349,community,1600000US0225000,Farm Loop CDP,Census designated place,
AK507,Farmers Loop,,Alaska,US,64.8988401940291,-147.69782906564,community,1600000US0224980,Farmers Loop CDP,Census designated place,
AK508,Fishhook,,Alaska,US,61.6718493583189,-149.223920212697,community,1600000US0225550,Fishhook CDP,Census designated place,
AK509,Four Mile Road,,Alaska,US,64.6018340512738,-149.130581429964,community,1600000US0226835,Four Mile Road CDP,Census designated place,
AK510,Fox River,,Alaska,US,59.8164082529192,-151.089466730094,community,1600000US0226910,Fox River CDP,Census designated place,
AK511,Fritz Creek,,Alaska,US,59.6914642064113,-151.374620472768,community,1600000US0227090,Fritz Creek CDP,Census designated place,
AK512,Funny River,,Alaska,US,60.5020669953468,-150.793904769706,community,1600000US0227145,Funny River CDP,Census designated place,
AK513,Game Creek,,Alaska,US,58.0752048088314,-135.484016627074,community,1600000US0227700,Game Creek CDP,Census designated place,
AK514,Gateway,,Alaska,US,61.563761550227,-149.264496073506,community,1600000US0228200,Gateway CDP,Census designated place,
AK515,Glacier View,,Alaska,US,61.7976837297296,-147.602615777868,community,1600000US0228590,Glacier View CDP,Census designated place,
AK516,Goldstream,,Alaska,US,64.9130934027709,-147.905143181693,community,1600000US0229130,Goldstream CDP,Census designated place,
AK517,Halibut Cove,,Alaska,US,59.5906488575155,-151.233511235235,community,1600000US0231270,Halibut Cove CDP,Census designated place,
AK518,Happy Valley,,Alaska,US,59.9327912999479,-151.728990249547,community,1600000US0231710,Happy Valley CDP,Census designated place,
AK519,Harding-Birch Lakes,,Alaska,US,64.3481136375039,-146.854993576174,community,1600000US0231765,Harding-Birch Lakes CDP,Census designated place,
AK520,Hobart Bay,,Alaska,US,57.4009687841145,-133.412652245981,community,1600000US0232550,Hobart Bay CDP,Census designated place,
AK521,Knik River,,Alaska,US,61.481248181518,-149.129956833851,community,1600000US0240670,Knik River CDP,Census designated place,
AK522,Kodiak Station,,Alaska,US,57.7551796258738,-152.513952381319,community,1600000US0241210,Kodiak Station CDP,Census designated place,
AK523,Lake Louise,,Alaska,US,62.2720649720196,-146.535138554743,community,1600000US0242805,Lake Louise CDP,Census designated place,
AK524,Lazy Mountain,,Alaska,US,61.6152452882938,-149.060809483244,community,1600000US0243260,Lazy Mountain CDP,Census designated place,
AK525,Lowell Point,,Alaska,US,60.0708871927452,-149.442044291663,community,1600000US0245295,Lowell Point CDP,Census designated place,
AK526,Lutak,,Alaska,US,59.3232913961004,-135.560246591843,community,1600000US0245700,Lutak CDP,Census designated place,
AK527,Meadow Lakes,,Alaska,US,61.5845685992176,-149.628037838618,community,1600000US0247735,Meadow Lakes CDP,Census designated place,
AK528,Mertarvik,,Alaska,US,60.8195959925068,-164.512261318241,community,1600000US0248590,Mertarvik CDP,Census designated place,
AK529,Mill Bay,,Alaska,US,57.8195329878276,-152.355948241955,community,1600000US0249200,Mill Bay CDP,Census designated place,
AK530,Moose Creek,,Alaska,US,64.7155353058851,-147.164459513279,community,1600000US0250080,Moose Creek CDP,Census designated place,
AK531,Mosquito Lake,,Alaska,US,59.4245755837558,-136.016044597063,community,1600000US0250800,Mosquito Lake CDP,Census designated place,
AK532,Mud Bay,,Alaska,US,59.17019892069,-135.366495587474,community,1600000US0251455,Mud Bay CDP,Census designated place,
AK533,Naukati Bay,,Alaska,US,55.8762010913518,-133.192085755332,community,1600000US0252845,Naukati Bay CDP,Census designated place,
AK534,North Lakes,,Alaska,US,61.6135154646302,-149.329805129446,community,1600000US0255745,North Lakes CDP,Census designated place,
AK535,Pleasant Valley,,Alaska,US,64.880207562538,-146.887450362047,community,1600000US0261120,Pleasant Valley CDP,Census designated place,
AK536,Point MacKenzie,,Alaska,US,61.3470634606156,-150.065850824749,community,1600000US0261788,Point MacKenzie CDP,Census designated place,
AK537,Point Possession,,Alaska,US,60.9535678691576,-150.6744360316,community,1600000US0261825,Point Possession CDP,Census designated place,
AK538,Pope-Vannoy Landing,,Alaska,US,59.5354251012985,-154.505164152232,community,1600000US0262125,Pope-Vannoy Landing CDP,Census designated place,
AK539,Port Clarence,,Alaska,US,65.2572550516543,-166.866138420608,community,1600000US0263170,Port Clarence CDP,Census designated place,
AK540,Primrose,,Alaska,US,60.3236481575312,-149.357598950283,community,1600000US0264240,Primrose CDP,Census designated place,
AK541,Red Dog Mine,,Alaska,US,68.036022819916,-162.896432114116,community,1600000US0264980,Red Dog Mine CDP,Census designated place,
AK542,Ridgeway,,Alaska,US,60.5165394558213,-151.058229609748,community,1600000US0265345,Ridgeway CDP,Census designated place,
AK543,Seldovia Village,,Alaska,US,59.4716137073092,-151.654768865558,community,1600000US0268370,Seldovia Village CDP,Census designated place,
AK544,Silver Springs,,Alaska,US,62.0137592575516,-145.335953249396,community,1600000US0270320,Silver Springs CDP,Census designated place,
AK545,South Lakes,,Alaska,US,61.5902913857921,-149.316503713196,community,1600000US0272135,South Lakes CDP,Census designated place,
AK546,South Van Horn,,Alaska,US,64.8074732836618,-147.774013512024,community,1600000US0272230,South Van Horn CDP,Census designated place,
AK547,St. George,Anĝaaxchaluxˆ,Alaska,US,56.5748069698747,-169.610358892355,community,1600000US0265800,St. George city,Incorporated place,
AK548,Steele Creek,,Alaska,US,64.9028054910585,-147.524116697126,community,1600000US0272985,Steele Creek CDP,Census designated place,
AK549,Susitna North,,Alaska,US,62.1321890285062,-150.03223325894,community,1600000US0274350,Susitna North CDP,Census designated place,
AK550,Sutton-Alpine,,Alaska,US,61.7167734610463,-148.884408161113,community,1600000US0274525,Sutton-Alpine CDP,Census designated place,
AK551,Tanaina,,Alaska,US,61.6141393109188,-149.450805904867,community,1600000US0275077,Tanaina CDP,Census designated place,
AK552,Tolsona,,Alaska,US,62.0990268625294,-146.044410321736,community,1600000US0278297,Tolsona CDP,Census designated place,
AK553,Trapper Creek,,Alaska,US,62.3113864284279,-150.245804793365,community,1600000US0278680,Trapper Creek CDP,Census designated place,
AK554,Whitestone,,Alaska,US,64.153587248891,-145.886317164469,community,1600000US0284120,Whitestone CDP,Census designated place,
AK555,Whitestone Logging Camp,,Alaska,US,58.0831415629241,-135.436672104229,community,1600000US0284200,Whitestone Logging Camp CDP,Census designated place,
AK556,Willow Creek,,Alaska,US,61.8123092645089,-145.1944156,community,1600000US0285290,Willow Creek CDP,Census designated place,
