id,name,alt_name,region,country,latitude,longitude,type,GEOIDFQ,PLACENAME,AREATYPE,COMMENT
BORO1,Aleutians East Borough,,,,,,borough,0500000US02013,Aleutians East Borough,County,
BORO19,Municipality of Anchorage,,,,,,borough,0500000US02020,Anchorage Municipality,County,
AK15,Anchorage,Dgheyaytnu,Alaska,US,61.1817,-149.993,community,0500000US02020,Anchorage Municipality,County,"Data represent information from nearest [COLUMN K], [COLUMN J], which includes [all COLUMN Bs for COLUMN J]. See maps below for data displayed at the census tract level"
CENS9,Bethel Census Area,,,,,,census_area,0500000US02050,Bethel Census Area,County,
BORO17,Bristol Bay Borough,,,,,,borough,0500000US02060,Bristol Bay Borough,County,
CENS11,Chugach Census Area,,,,,,census_area,0500000US02063,Chugach Census Area,County,
CENS10,Copper River Census Area,,,,,,census_area,0500000US02066,Copper River Census Area,County,
BORO18,Denali Borough,,,,,,borough,0500000US02068,Denali Borough,County,
CENS3,Dillingham Census Area,,,,,,census_area,0500000US02070,Dillingham Census Area,County,
BORO8,Fairbanks North Star Borough,,,,,,borough,0500000US02090,Fairbanks North Star Borough,County,
AK124,Fairbanks,,Alaska,US,64.8378,-147.716,community,0500000US02090,Fairbanks North Star Borough,County,"Data represent information from nearest [COLUMN K], [COLUMN J], which includes [all COLUMN Bs for COLUMN J]. See maps below for data displayed at the census tract level"
BORO16,Haines Borough,,,,,,borough,0500000US02100,Haines Borough,County,
CENS4,Hoonah-Angoon Census Area,,,,,,census_area,0500000US02105,Hoonah-Angoon Census Area,County,
BORO9,City and Borough of Juneau,,,,,,borough,0500000US02110,Juneau City and Borough,County,
AK172,Juneau,Dzánti K'ihéeni,Alaska,US,58.3019,-134.42,community,0500000US02110,Juneau City and Borough,County,"Data represent information from nearest [COLUMN K], [COLUMN J], which includes [all COLUMN Bs for COLUMN J]"
AK225,Lena Beach,,Alaska,US,58.393,-134.746,community,0500000US02110,Juneau City and Borough,County,"Data represent information from nearest [COLUMN K], [COLUMN J], which includes [all COLUMN Bs for COLUMN J]"
AK27,Auke Bay,,Alaska,US,58.383,-134.657,community,0500000US02110,Juneau City and Borough,County,"Data represent information from nearest [COLUMN K], [COLUMN J], which includes [all COLUMN Bs for COLUMN J]"
AK388,Tee Harbor,,Alaska,US,58.41,-134.757,community,0500000US02110,Juneau City and Borough,County,"Data represent information from nearest [COLUMN K], [COLUMN J], which includes [all COLUMN Bs for COLUMN J]"
AK395,Thane,,Alaska,US,58.264,-134.328,community,0500000US02110,Juneau City and Borough,County,"Data represent information from nearest [COLUMN K], [COLUMN J], which includes [all COLUMN Bs for COLUMN J]"
AK99,Douglas,,Alaska,US,58.2762,-134.392,community,0500000US02110,Juneau City and Borough,County,"Data represent information from nearest [COLUMN K], [COLUMN J], which includes [all COLUMN Bs for COLUMN J]"
BORO15,Kenai Peninsula Borough,,,,,,borough,0500000US02122,Kenai Peninsula Borough,County,
BORO7,Ketchikan Gateway Borough,,,,,,borough,0500000US02130,Ketchikan Gateway Borough,County,
BORO4,Kodiak Island Borough,,,,,,borough,0500000US02150,Kodiak Island Borough,County,
CENS5,Kusilvak Census Area,,,,,,census_area,0500000US02158,Kusilvak Census Area,County,
BORO2,Lake and Peninsula Borough,,,,,,borough,0500000US02164,Lake and Peninsula Borough,County,
BORO13,Matanuska-Susitna Borough,,,,,,borough,0500000US02170,Matanuska-Susitna Borough,County,
CENS6,Nome Census Area,,,,,,census_area,0500000US02180,Nome Census Area,County,
BORO3,North Slope Borough,,,,,,borough,0500000US02185,North Slope Borough,County,
BORO6,Northwest Arctic Borough,,,,,,borough,0500000US02188,Northwest Arctic Borough,County,
BORO11,Petersburg Borough,,,,,,borough,0500000US02195,Petersburg Borough,County,
CENS7,Prince of Wales-Hyder Census Area,,,,,,census_area,0500000US02198,Prince of Wales-Hyder Census Area,County,
BORO10,City and Borough of Sitka,,,,,,borough,0500000US02220,Sitka City and Borough,County,
AK29,Baranof Warm Springs,,Alaska,US,57.0895,-134.8337,community,0500000US02220,Sitka City and Borough,County,"Data represent information from nearest [COLUMN K], [COLUMN J], which includes [all COLUMN Bs for COLUMN J]"
AK360,Sitka,Sheet'ká,Alaska,US,57.053,-135.33,community,0500000US02220,Sitka City and Borough,County,"Data represent information from nearest [COLUMN K], [COLUMN J], which includes [all COLUMN Bs for COLUMN J]"
AK60,Chatham,,Alaska,US,57.514,-134.924,community,0500000US02220,Sitka City and Borough,County,"Data represent information from nearest [COLUMN K], [COLUMN J], which includes [all COLUMN Bs for COLUMN J]"
BORO5,Municipality of Skagway,,,,,,borough,0500000US02230,Skagway Municipality,County,
CENS2,Southeast Fairbanks Census Area,,,,,,census_area,0500000US02240,Southeast Fairbanks Census Area,County,
BORO12,City and Borough of Wrangell,,,,,,borough,0500000US02275,Wrangell City and Borough,County,
AK249,Meyers Chuck,,Alaska,US,55.7408,-132.256,community,0500000US02275,Wrangell City and Borough,County,"Data represent information from nearest [COLUMN K], [COLUMN J], which includes [all COLUMN Bs for COLUMN J]"
AK434,Wrangell,Shtax’héen,Alaska,US,56.4708,-132.377,community,0500000US02275,Wrangell City and Borough,County,"Data represent information from nearest [COLUMN K], [COLUMN J], which includes [all COLUMN Bs for COLUMN J]"
BORO14,City and Borough of Yakutat,,,,,,borough,0500000US02282,Yakutat City and Borough,County,
AK53,Cape Yakataga,,Alaska,US,60.0652,-142.428,community,0500000US02282,Yakutat City and Borough,County,"Data represent information from nearest [COLUMN K], [COLUMN J], which includes [all COLUMN Bs for COLUMN J]"
CENS8,Yukon-Koyukuk Census Area,,,,,,census_area,0500000US02290,Yukon-Koyukuk Census Area,County,
AK110,Eklutna,Idlughet,Alaska,US,61.458,-149.362,community,1400000US02020000101,Census Tract 1.01,Census tract,"Data represent information from nearest [COLUMN K], [COLUMN J], which includes [all COLUMN Bs for COLUMN J]"
AK43,Birchwood,,Alaska,US,61.4081,-149.481,community,1400000US02020000102,Census Tract 1.02,Census tract,"Data represent information from nearest [COLUMN K], [COLUMN J], which includes [all COLUMN Bs for COLUMN J]"
AK103,Eagle River,,Alaska,US,61.3221,-149.567,community,1400000US02020000201,Census Tract 2.01,Census tract,Data for this place represent multiple merged census tracts
AK103,Eagle River,,Alaska,US,61.3221,-149.567,community,1400000US02020000202,Census Tract 2.02,Census tract,Data for this place represent multiple merged census tracts
AK103,Eagle River,,Alaska,US,61.3221,-149.567,community,1400000US02020000204,Census Tract 2.04,Census tract,Data for this place represent multiple merged census tracts
AK103,Eagle River,,Alaska,US,61.3221,-149.567,community,1400000US02020000205,Census Tract 2.05,Census tract,Data for this place represent multiple merged census tracts
AK103,Eagle River,,Alaska,US,61.3221,-149.567,community,1400000US02020000206,Census Tract 2.06,Census tract,Data for this place represent multiple merged census tracts
AK136,Girdwood,,Alaska,US,60.9421,-149.167,community,1400000US02020002900,Census Tract 29,Census tract,"Data represent information from nearest [COLUMN K], [COLUMN J], which includes [all COLUMN Bs for COLUMN J]"
AK166,Indian,,Alaska,US,60.9881,-149.513,community,1400000US02020002900,Census Tract 29,Census tract,"Data represent information from nearest [COLUMN K], [COLUMN J], which includes [all COLUMN Bs for COLUMN J]"
AK328,Portage,,Alaska,US,60.8381,-148.979,community,1400000US02020002900,Census Tract 29,Census tract,"Data represent information from nearest [COLUMN K], [COLUMN J], which includes [all COLUMN Bs for COLUMN J]"
AK333,Rainbow,,Alaska,US,61.0041,-149.642,community,1400000US02020002900,Census Tract 29,Census tract,"Data represent information from nearest [COLUMN K], [COLUMN J], which includes [all COLUMN Bs for COLUMN J]"
AK44,Bird Point,,Alaska,US,60.9311,-149.358,community,1400000US02020002900,Census Tract 29,Census tract,"Data represent information from nearest [COLUMN K], [COLUMN J], which includes [all COLUMN Bs for COLUMN J]"
AK439,Joint Base Elmendorf-Richardson,,Alaska,US,61.2514,-149.8064,community,1400000US02020980100,Census Tract 9801,Census tract,Data for this place represent multiple merged census tracts
AK439,Joint Base Elmendorf-Richardson,,Alaska,US,61.2514,-149.8064,community,1400000US02020980200,Census Tract 9802,Census tract,Data for this place represent multiple merged census tracts
AK438,Fort Wainwright,,Alaska,US,64.8278,-147.6429,community,1400000US02090980000,Census Tract 9800,Census tract,"Data represent information from nearest [COLUMN K], [COLUMN J], which includes [all COLUMN Bs for COLUMN J]"
AK2,Akhiok,Kasukuak,Alaska,US,56.9455,-154.17,community,1600000US0200650,Akhiok city,Incorporated place,"Data represent information from nearest [COLUMN K], [COLUMN J], which includes [all COLUMN Bs for COLUMN J]"
AK3,Akiachak,Akiacuar,Alaska,US,60.9094,-161.431,community,1600000US0200760,Akiachak CDP,Census designated place,"Data represent information from nearest [COLUMN K], [COLUMN J], which includes [all COLUMN Bs for COLUMN J]"
AK4,Akiak,Akiaq,Alaska,US,60.9122,-161.214,community,1600000US0200870,Akiak city,Incorporated place,"Data represent information from nearest [COLUMN K], [COLUMN J], which includes [all COLUMN Bs for COLUMN J]"
AK5,Akutan,Achan-ingiiga,Alaska,US,54.1385,-165.778,community,1600000US0201090,Akutan city,Incorporated place,"Data represent information from nearest [COLUMN K], [COLUMN J], which includes [all COLUMN Bs for COLUMN J]"
AK6,Alakanuk,Alarneq,Alaska,US,62.6889,-164.615,community,1600000US0201200,Alakanuk city,Incorporated place,"Data represent information from nearest [COLUMN K], [COLUMN J], which includes [all COLUMN Bs for COLUMN J]"
AK7,Alatna,Alaasuq,Alaska,US,66.5542,-152.7019,community,1600000US0201305,Alatna CDP,Census designated place,"Data represent information from nearest [COLUMN K], [COLUMN J], which includes [all COLUMN Bs for COLUMN J]"
AK488,Alcan Border,,Alaska,US,62.685631,-141.125333,community,1600000US0201390,Alcan Border CDP,Census designated place,"Data represent information from nearest [COLUMN K], [COLUMN J], which includes [all COLUMN Bs for COLUMN J]"
AK8,Aleknagik,Alaqnaqiq,Alaska,US,59.273,-158.618,community,1600000US0201420,Aleknagik city,Incorporated place,"Data represent information from nearest [COLUMN K], [COLUMN J], which includes [all COLUMN Bs for COLUMN J]"
AK1,Afognak,Agw’aneq,Alaska,US,58.0078,-152.768,community,1600000US0201560,Aleneva CDP,Census designated place,"Data represent information from nearest [COLUMN K], [COLUMN J], which includes [all COLUMN Bs for COLUMN J]"
AK489,Aleneva,,Alaska,US,58.004623,-152.882483,community,1600000US0201560,Aleneva CDP,Census designated place,"Data represent information from nearest [COLUMN K], [COLUMN J], which includes [all COLUMN Bs for COLUMN J]"
AK11,Allakaket,Aalaa Kkaakk’et,Alaska,US,66.5656,-152.646,community,1600000US0201860,Allakaket city,Incorporated place,"Data represent information from nearest [COLUMN K], [COLUMN J], which includes [all COLUMN Bs for COLUMN J]"
AK12,Ambler,Ivisaappaat,Alaska,US,67.0861,-157.851,community,1600000US0201970,Ambler city,Incorporated place,"Data represent information from nearest [COLUMN K], [COLUMN J], which includes [all COLUMN Bs for COLUMN J]"
AK13,Anaktuvuk Pass,Anaqtuuvak / Naqsraq,Alaska,US,68.1433,-151.736,community,1600000US0202080,Anaktuvuk Pass city,Incorporated place,"Data represent information from nearest [COLUMN K], [COLUMN J], which includes [all COLUMN Bs for COLUMN J]"
AK14,Anchor Point,,Alaska,US,59.7766,-151.831,community,1600000US0203110,Anchor Point CDP,Census designated place,"Data represent information from nearest [COLUMN K], [COLUMN J], which includes [all COLUMN Bs for COLUMN J]"
AK16,Anderson,,Alaska,US,64.3441,-149.187,community,1600000US0203220,Anderson city,Incorporated place,"Data represent information from nearest [COLUMN K], [COLUMN J], which includes [all COLUMN Bs for COLUMN J]"
AK81,Clear,,Alaska,US,64.3332,-149.167,community,1600000US0203220,Anderson city,Incorporated place,"Data represent information from nearest [COLUMN K], [COLUMN J], which includes [all COLUMN Bs for COLUMN J]"
AK18,Angoon,Aangóon,Alaska,US,57.5033,-134.584,community,1600000US0203440,Angoon city,Incorporated place,"Data represent information from nearest [COLUMN K], [COLUMN J], which includes [all COLUMN Bs for COLUMN J]"
AK19,Aniak,Anyaraq,Alaska,US,61.5783,-159.522,community,1600000US0203550,Aniak city,Incorporated place,"Data represent information from nearest [COLUMN K], [COLUMN J], which includes [all COLUMN Bs for COLUMN J]"
AK21,Anvik,Gitr’ingith Chagg,Alaska,US,62.6561,-160.207,community,1600000US0203880,Anvik city,Incorporated place,"Data represent information from nearest [COLUMN K], [COLUMN J], which includes [all COLUMN Bs for COLUMN J]"
AK22,Arctic Village,Vashrąįį K'ǫǫ,Alaska,US,68.1269,-145.538,community,1600000US0203990,Arctic Village CDP,Census designated place,"Data represent information from nearest [COLUMN K], [COLUMN J], which includes [all COLUMN Bs for COLUMN J]"
AK23,Atka,Atx̂ax̂,Alaska,US,52.191,-174.189,community,1600000US0204210,Atka city,Incorporated place,"Data represent information from nearest [COLUMN K], [COLUMN J], which includes [all COLUMN Bs for COLUMN J]"
AK24,Atmautluak,Atmaulluaq,Alaska,US,60.8641,-162.2723,community,1600000US0204430,Atmautluak CDP,Census designated place,"Data represent information from nearest [COLUMN K], [COLUMN J], which includes [all COLUMN Bs for COLUMN J]"
AK25,Atqasuk,,Alaska,US,70.4694,-157.396,community,1600000US0204500,Atqasuk city,Incorporated place,"Data represent information from nearest [COLUMN K], [COLUMN J], which includes [all COLUMN Bs for COLUMN J]"
AK26,Attu,,Alaska,US,52.9365,173.24,community,1600000US0204670,Attu Station CDP,Census designated place,"Data represent information from nearest [COLUMN K], [COLUMN J], which includes [all COLUMN Bs for COLUMN J]"
AK490,Badger,,Alaska,US,64.805794,-147.403888,community,1600000US0205000,Badger CDP,Census designated place,"Data represent information from nearest [COLUMN K], [COLUMN J], which includes [all COLUMN Bs for COLUMN J]"
AK491,Bear Creek,,Alaska,US,60.18387865,-149.3886132,community,1600000US0205585,Bear Creek CDP,Census designated place,"Data represent information from nearest [COLUMN K], [COLUMN J], which includes [all COLUMN Bs for COLUMN J]"
AK31,Beaver,Ts'aahudaaneekk'onh Denh,Alaska,US,66.3594,-147.396,community,1600000US0205750,Beaver CDP,Census designated place,"Data represent information from nearest [COLUMN K], [COLUMN J], which includes [all COLUMN Bs for COLUMN J]"
AK492,Beluga,,Alaska,US,61.18489717,-151.0349675,community,1600000US0206245,Beluga CDP,Census designated place,"Data represent information from nearest [COLUMN K], [COLUMN J], which includes [all COLUMN Bs for COLUMN J]"
AK36,Bethel,Mamterilleq,Alaska,US,60.7922,-161.756,community,1600000US0206520,Bethel city,Incorporated place,"Data represent information from nearest [COLUMN K], [COLUMN J], which includes [all COLUMN Bs for COLUMN J]"
AK37,Bettles,Kk’odlel T’odegheelenh Denh,Alaska,US,66.9185,-151.5162,community,1600000US0206630,Bettles city,Incorporated place,"Data represent information from nearest [COLUMN K], [COLUMN J], which includes [all COLUMN Bs for COLUMN J]"
AK38,Big Delta,,Alaska,US,64.1525,-145.842,community,1600000US0206850,Big Delta CDP,Census designated place,"Data represent information from nearest [COLUMN K], [COLUMN J], which includes [all COLUMN Bs for COLUMN J]"
AK39,Big Lake,,Alaska,US,61.5378,-149.824,community,1600000US0207070,Big Lake CDP,Census designated place,"Data represent information from nearest [COLUMN K], [COLUMN J], which includes [all COLUMN Bs for COLUMN J]"
AK42,Birch Creek,Łiteet'aii,Alaska,US,66.2687,-145.824,community,1600000US0207620,Birch Creek CDP,Census designated place,"Data represent information from nearest [COLUMN K], [COLUMN J], which includes [all COLUMN Bs for COLUMN J]"
AK47,Brevig Mission,Sitaisaq,Alaska,US,65.3347,-166.489,community,1600000US0208740,Brevig Mission city,Incorporated place,"Data represent information from nearest [COLUMN K], [COLUMN J], which includes [all COLUMN Bs for COLUMN J]"
AK48,Buckland,Kaŋiq,Alaska,US,65.9797,-161.123,community,1600000US0209600,Buckland city,Incorporated place,"Data represent information from nearest [COLUMN K], [COLUMN J], which includes [all COLUMN Bs for COLUMN J]"
AK493,Buffalo Soapstone,,Alaska,US,61.66837582,-149.1216584,community,1600000US0209657,Buffalo Soapstone CDP,Census designated place,"Data represent information from nearest [COLUMN K], [COLUMN J], which includes [all COLUMN Bs for COLUMN J]"
AK45,Bodenburg Butte,,Alaska,US,61.5495,-149.047,community,1600000US0209710,Butte CDP,Census designated place,"Data represent information from nearest [COLUMN K], [COLUMN J], which includes [all COLUMN Bs for COLUMN J]"
AK494,Butte,,Alaska,US,61.54167454,-149.0363332,community,1600000US0209710,Butte CDP,Census designated place,"Data represent information from nearest [COLUMN K], [COLUMN J], which includes [all COLUMN Bs for COLUMN J]"
AK50,Cantwell,Yidateni Na’,Alaska,US,63.3917,-148.951,community,1600000US0210150,Cantwell CDP,Census designated place,"Data represent information from nearest [COLUMN K], [COLUMN J], which includes [all COLUMN Bs for COLUMN J]"
AK54,Central,,Alaska,US,65.5724,-144.803,community,1600000US0211690,Central CDP,Census designated place,"Data represent information from nearest [COLUMN K], [COLUMN J], which includes [all COLUMN Bs for COLUMN J]"
AK78,Circle Hot Springs,,Alaska,US,65.4833,-144.634,community,1600000US0211690,Central CDP,Census designated place,"Data represent information from nearest [COLUMN K], [COLUMN J], which includes [all COLUMN Bs for COLUMN J]"
AK57,Chalkyitsik,Jałgiitsik,Alaska,US,66.6544,-143.722,community,1600000US0211800,Chalkyitsik CDP,Census designated place,"Data represent information from nearest [COLUMN K], [COLUMN J], which includes [all COLUMN Bs for COLUMN J]"
AK495,Chase,,Alaska,US,62.4250653,-150.1244726,community,1600000US0212350,Chase CDP,Census designated place,"Data represent information from nearest [COLUMN K], [COLUMN J], which includes [all COLUMN Bs for COLUMN J]"
AK61,Chefornak,Cevvʼarneq / Caputnguaq,Alaska,US,60.1607,-164.271,community,1600000US0212680,Chefornak city,Incorporated place,"Data represent information from nearest [COLUMN K], [COLUMN J], which includes [all COLUMN Bs for COLUMN J]"
AK496,Chena Ridge,,Alaska,US,64.82278415,-147.9764052,community,1600000US0212920,Chena Ridge CDP,Census designated place,"Data represent information from nearest [COLUMN K], [COLUMN J], which includes [all COLUMN Bs for COLUMN J]"
AK321,Port Ashton,,Alaska,US,60.0581,-148.05,community,1600000US0212970,Chenega CDP,Census designated place,"Data represent information from nearest [COLUMN K], [COLUMN J], which includes [all COLUMN Bs for COLUMN J]"
AK63,Chenega Bay,Caniqaq,Alaska,US,60.0746,-148.003,community,1600000US0212970,Chenega CDP,Census designated place,"Data represent information from nearest [COLUMN K], [COLUMN J], which includes [all COLUMN Bs for COLUMN J]"
AK64,Chevak,Cevʼaq,Alaska,US,61.5278,-165.586,community,1600000US0213230,Chevak city,Incorporated place,"Data represent information from nearest [COLUMN K], [COLUMN J], which includes [all COLUMN Bs for COLUMN J]"
AK65,Chickaloon,Nay’dini’aa Na’,Alaska,US,61.7967,-148.463,community,1600000US0213340,Chickaloon CDP,Census designated place,"Data represent information from nearest [COLUMN K], [COLUMN J], which includes [all COLUMN Bs for COLUMN J]"
AK66,Chicken,,Alaska,US,64.0733,-141.936,community,1600000US0213450,Chicken CDP,Census designated place,"Data represent information from nearest [COLUMN K], [COLUMN J], which includes [all COLUMN Bs for COLUMN J]"
AK68,Chignik Lagoon,Nanwarnaq,Alaska,US,56.3104,-158.5361,community,1600000US0213670,Chignik Lagoon CDP,Census designated place,"Data represent information from nearest [COLUMN K], [COLUMN J], which includes [all COLUMN Bs for COLUMN J]"
AK69,Chignik Lake,Igyaraq,Alaska,US,56.2552,-158.7696,community,1600000US0213780,Chignik Lake CDP,Census designated place,"Data represent information from nearest [COLUMN K], [COLUMN J], which includes [all COLUMN Bs for COLUMN J]"
AK70,Chiniak,,Alaska,US,57.617,-152.2166,community,1600000US0213860,Chiniak CDP,Census designated place,"Data represent information from nearest [COLUMN K], [COLUMN J], which includes [all COLUMN Bs for COLUMN J]"
AK71,Chisana,,Alaska,US,62.0671,-142.049,community,1600000US0213890,Chisana CDP,Census designated place,"Data represent information from nearest [COLUMN K], [COLUMN J], which includes [all COLUMN Bs for COLUMN J]"
AK167,Indian River,,Alaska,US,62.6672,-144.433,community,1600000US0214000,Chistochina CDP,Census designated place,"Data represent information from nearest [COLUMN K], [COLUMN J], which includes [all COLUMN Bs for COLUMN J]"
AK72,Chistochina,Tsiis Tl’edze’ Caegge,Alaska,US,62.565,-144.665,community,1600000US0214000,Chistochina CDP,Census designated place,"Data represent information from nearest [COLUMN K], [COLUMN J], which includes [all COLUMN Bs for COLUMN J]"
AK73,Chitina,Tsedi Na',Alaska,US,61.5158,-144.437,community,1600000US0214110,Chitina CDP,Census designated place,"Data represent information from nearest [COLUMN K], [COLUMN J], which includes [all COLUMN Bs for COLUMN J]"
AK75,Chuathbaluk,Curarpalek,Alaska,US,61.5726,-159.235,community,1600000US0214330,Chuathbaluk city,Incorporated place,"Data represent information from nearest [COLUMN K], [COLUMN J], which includes [all COLUMN Bs for COLUMN J]"
AK77,Circle,Danzhit Khànląįį,Alaska,US,65.8255,-144.061,community,1600000US0214880,Circle CDP,Census designated place,"Data represent information from nearest [COLUMN K], [COLUMN J], which includes [all COLUMN Bs for COLUMN J]"
AK79,Clam Gulch,,Alaska,US,60.2311,-151.394,community,1600000US0215320,Clam Gulch CDP,Census designated place,"Data represent information from nearest [COLUMN K], [COLUMN J], which includes [all COLUMN Bs for COLUMN J]"
AK80,Clark's Point,Saguyaq,Alaska,US,58.8441,-158.551,community,1600000US0215430,Clark's Point city,Incorporated place,"Data represent information from nearest [COLUMN K], [COLUMN J], which includes [all COLUMN Bs for COLUMN J]"
AK83,Coffman Cove,,Alaska,US,56.0119,-132.8296,community,1600000US0216360,Coffman Cove city,Incorporated place,"Data represent information from nearest [COLUMN K], [COLUMN J], which includes [all COLUMN Bs for COLUMN J]"
AK84,Cohoe,,Alaska,US,60.3671,-151.3,community,1600000US0216420,Cohoe CDP,Census designated place,"Data represent information from nearest [COLUMN K], [COLUMN J], which includes [all COLUMN Bs for COLUMN J]"
AK85,Cold Bay,,Alaska,US,55.1858,-162.721,community,1600000US0216530,Cold Bay city,Incorporated place,"Data represent information from nearest [COLUMN K], [COLUMN J], which includes [all COLUMN Bs for COLUMN J]"
AK497,Coldfoot,,Alaska,US,67.25104219,-150.1743732,community,1600000US0216630,Coldfoot CDP,Census designated place,"Data represent information from nearest [COLUMN K], [COLUMN J], which includes [all COLUMN Bs for COLUMN J]"
AK86,College,,Alaska,US,64.8582,-147.808,community,1600000US0216750,College CDP,Census designated place,"Data represent information from nearest [COLUMN K], [COLUMN J], which includes [all COLUMN Bs for COLUMN J]"
AK87,Cooper Landing,,Alaska,US,60.4906,-149.833,community,1600000US0217190,Cooper Landing CDP,Census designated place,"Data represent information from nearest [COLUMN K], [COLUMN J], which includes [all COLUMN Bs for COLUMN J]"
AK88,Copper Center,Tl’aticae’e,Alaska,US,61.955,-145.305,community,1600000US0217300,Copper Center CDP,Census designated place,"Data represent information from nearest [COLUMN K], [COLUMN J], which includes [all COLUMN Bs for COLUMN J]"
AK123,Eyak,Igya’aq,Alaska,US,60.5652,-145.7,community,1600000US0217410,Cordova city,Incorporated place,"Data represent information from nearest [COLUMN K], [COLUMN J], which includes [all COLUMN Bs for COLUMN J]"
AK89,Cordova,,Alaska,US,60.5428,-145.757,community,1600000US0217410,Cordova city,Incorporated place,"Data represent information from nearest [COLUMN K], [COLUMN J], which includes [all COLUMN Bs for COLUMN J]"
AK498,Covenant Life,,Alaska,US,59.40031217,-136.0026849,community,1600000US0217670,Covenant Life CDP,Census designated place,"Data represent information from nearest [COLUMN K], [COLUMN J], which includes [all COLUMN Bs for COLUMN J]"
AK92,Crooked Creek,Qipcarpak,Alaska,US,61.87,-158.111,community,1600000US0217850,Crooked Creek CDP,Census designated place,"Data represent information from nearest [COLUMN K], [COLUMN J], which includes [all COLUMN Bs for COLUMN J]"
AK499,Crown Point,,Alaska,US,60.42886031,-149.3707319,community,1600000US0217960,Crown Point CDP,Census designated place,"Data represent information from nearest [COLUMN K], [COLUMN J], which includes [all COLUMN Bs for COLUMN J]"
AK94,Deering,Ipnatchiaq,Alaska,US,66.0755,-162.717,community,1600000US0218510,Deering city,Incorporated place,"Data represent information from nearest [COLUMN K], [COLUMN J], which includes [all COLUMN Bs for COLUMN J]"
AK95,Delta Junction,,Alaska,US,64.0377,-145.732,community,1600000US0218620,Delta Junction city,Incorporated place,"Data represent information from nearest [COLUMN K], [COLUMN J], which includes [all COLUMN Bs for COLUMN J]"
AK500,Deltana,,Alaska,US,64.04044064,-145.5182346,community,1600000US0218675,Deltana CDP,Census designated place,"Data represent information from nearest [COLUMN K], [COLUMN J], which includes [all COLUMN Bs for COLUMN J]"
AK501,Denali Park,,Alaska,US,63.63877692,-148.789517,community,1600000US0218805,Denali Park CDP,Census designated place,"Data represent information from nearest [COLUMN K], [COLUMN J], which includes [all COLUMN Bs for COLUMN J]"
AK502,Diamond Ridge,,Alaska,US,59.68137608,-151.622594,community,1600000US0218925,Diamond Ridge CDP,Census designated place,"Data represent information from nearest [COLUMN K], [COLUMN J], which includes [all COLUMN Bs for COLUMN J]"
AK180,Kanakanak,,Alaska,US,59.0031,-158.533,community,1600000US0218950,Dillingham city,Incorporated place,"Data represent information from nearest [COLUMN K], [COLUMN J], which includes [all COLUMN Bs for COLUMN J]"
AK96,Dillingham,Curyung,Alaska,US,59.0397,-158.457,community,1600000US0218950,Dillingham city,Incorporated place,"Data represent information from nearest [COLUMN K], [COLUMN J], which includes [all COLUMN Bs for COLUMN J]"
AK97,Diomede,Iŋaliq,Alaska,US,65.7648,-168.911,community,1600000US0219060,Diomede city,Incorporated place,"Data represent information from nearest [COLUMN K], [COLUMN J], which includes [all COLUMN Bs for COLUMN J]"
AK98,Dot Lake,Kelt’aaddh Menn’,Alaska,US,63.663,-144.049,community,1600000US0219720,Dot Lake CDP,Census designated place,"Data represent information from nearest [COLUMN K], [COLUMN J], which includes [all COLUMN Bs for COLUMN J]"
AK503,Dot Lake Village,,Alaska,US,63.65678441,-144.0484069,community,1600000US0219750,Dot Lake Village CDP,Census designated place,"Data represent information from nearest [COLUMN K], [COLUMN J], which includes [all COLUMN Bs for COLUMN J]"
AK100,Dry Creek,,Alaska,US,63.7,-144.567,community,1600000US0220020,Dry Creek CDP,Census designated place,"Data represent information from nearest [COLUMN K], [COLUMN J], which includes [all COLUMN Bs for COLUMN J]"
AK102,Eagle,Tthee T'äwdlenn,Alaska,US,64.788,-141.2,community,1600000US0220380,Eagle city,Incorporated place,"Data represent information from nearest [COLUMN K], [COLUMN J], which includes [all COLUMN Bs for COLUMN J]"
AK104,Eagle Village,,Alaska,US,64.7805,-141.114,community,1600000US0220600,Eagle Village CDP,Census designated place,"Data represent information from nearest [COLUMN K], [COLUMN J], which includes [all COLUMN Bs for COLUMN J]"
AK105,Edna Bay,,Alaska,US,55.9489,-133.662,community,1600000US0220970,Edna Bay city,Incorporated place,"Data represent information from nearest [COLUMN K], [COLUMN J], which includes [all COLUMN Bs for COLUMN J]"
AK106,Eek,Ekvicuaq,Alaska,US,60.2189,-162.024,community,1600000US0221040,Eek city,Incorporated place,"Data represent information from nearest [COLUMN K], [COLUMN J], which includes [all COLUMN Bs for COLUMN J]"
AK108,Egegik,Igyagiiq,Alaska,US,58.2155,-157.376,community,1600000US0221150,Egegik city,Incorporated place,"Data represent information from nearest [COLUMN K], [COLUMN J], which includes [all COLUMN Bs for COLUMN J]"
AK442,Eielson Air Force Base,,Alaska,US,64.6656,-147.1014,community,1600000US0221370,Eielson AFB CDP,Census designated place,"Data represent information from nearest [COLUMN K], [COLUMN J], which includes [all COLUMN Bs for COLUMN J]"
AK112,Ekwok,Iquaq,Alaska,US,59.3497,-157.475,community,1600000US0221810,Ekwok city,Incorporated place,"Data represent information from nearest [COLUMN K], [COLUMN J], which includes [all COLUMN Bs for COLUMN J]"
AK115,Elim,Neviarcaurluq,Alaska,US,64.6175,-162.26,community,1600000US0222250,Elim city,Incorporated place,"Data represent information from nearest [COLUMN K], [COLUMN J], which includes [all COLUMN Bs for COLUMN J]"
AK117,Emmonak,Imangaq,Alaska,US,62.7778,-164.523,community,1600000US0222910,Emmonak city,Incorporated place,"Data represent information from nearest [COLUMN K], [COLUMN J], which includes [all COLUMN Bs for COLUMN J]"
AK219,Kwiguk,,Alaska,US,62.7683,-164.5067,community,1600000US0222910,Emmonak city,Incorporated place,"Data represent information from nearest [COLUMN K], [COLUMN J], which includes [all COLUMN Bs for COLUMN J]"
AK120,Ester,,Alaska,US,64.8472,-148.014,community,1600000US0223460,Ester CDP,Census designated place,"Data represent information from nearest [COLUMN K], [COLUMN J], which includes [all COLUMN Bs for COLUMN J]"
AK504,Eureka Roadhouse,,Alaska,US,61.93746748,-147.1687593,community,1600000US0223720,Eureka Roadhouse CDP,Census designated place,"Data represent information from nearest [COLUMN K], [COLUMN J], which includes [all COLUMN Bs for COLUMN J]"
AK505,Evansville,,Alaska,US,66.92377322,-151.506064,community,1600000US0223790,Evansville CDP,Census designated place,"Data represent information from nearest [COLUMN K], [COLUMN J], which includes [all COLUMN Bs for COLUMN J]"
AK122,Excursion Inlet,,Alaska,US,58.417,-135.441,community,1600000US0223900,Excursion Inlet CDP,Census designated place,"Data represent information from nearest [COLUMN K], [COLUMN J], which includes [all COLUMN Bs for COLUMN J]"
AK125,False Pass,Isanax̂,Alaska,US,54.8548,-163.407,community,1600000US0224660,False Pass city,Incorporated place,"Data represent information from nearest [COLUMN K], [COLUMN J], which includes [all COLUMN Bs for COLUMN J]"
AK163,Ikatan,,Alaska,US,54.75,-163.308,community,1600000US0224660,False Pass city,Incorporated place,"Data represent information from nearest [COLUMN K], [COLUMN J], which includes [all COLUMN Bs for COLUMN J]"
AK252,Morzhovoi,,Alaska,US,54.91,-163.303,community,1600000US0224660,False Pass city,Incorporated place,"Data represent information from nearest [COLUMN K], [COLUMN J], which includes [all COLUMN Bs for COLUMN J]"
AK507,Farmers Loop,,Alaska,US,64.89884019,-147.6978291,community,1600000US0224980,Farmers Loop CDP,Census designated place,"Data represent information from nearest [COLUMN K], [COLUMN J], which includes [all COLUMN Bs for COLUMN J]"
AK506,Farm Loop,,Alaska,US,61.63538445,-149.1481883,community,1600000US0225000,Farm Loop CDP,Census designated place,"Data represent information from nearest [COLUMN K], [COLUMN J], which includes [all COLUMN Bs for COLUMN J]"
AK126,Ferry,,Alaska,US,64.0172,-149.117,community,1600000US0225220,Ferry CDP,Census designated place,"Data represent information from nearest [COLUMN K], [COLUMN J], which includes [all COLUMN Bs for COLUMN J]"
AK508,Fishhook,,Alaska,US,61.67184936,-149.2239202,community,1600000US0225550,Fishhook CDP,Census designated place,"Data represent information from nearest [COLUMN K], [COLUMN J], which includes [all COLUMN Bs for COLUMN J]"
AK128,Flat,,Alaska,US,62.4536,-158.007,community,1600000US0225880,Flat CDP,Census designated place,"Data represent information from nearest [COLUMN K], [COLUMN J], which includes [all COLUMN Bs for COLUMN J]"
AK161,Iditarod,,Alaska,US,62.5448,-158.094,community,1600000US0225880,Flat CDP,Census designated place,"Data represent information from nearest [COLUMN K], [COLUMN J], which includes [all COLUMN Bs for COLUMN J]"
AK440,Fort Greely,,Alaska,US,63.9731,-145.7181,community,1600000US0226100,Fort Greely CDP,Census designated place,"Data represent information from nearest [COLUMN K], [COLUMN J], which includes [all COLUMN Bs for COLUMN J]"
AK130,Fort Yukon,Gwichyaa Zheh,Alaska,US,66.5647,-145.274,community,1600000US0226760,Fort Yukon city,Incorporated place,"Data represent information from nearest [COLUMN K], [COLUMN J], which includes [all COLUMN Bs for COLUMN J]"
AK509,Four Mile Road,,Alaska,US,64.60183405,-149.1305814,community,1600000US0226835,Four Mile Road CDP,Census designated place,"Data represent information from nearest [COLUMN K], [COLUMN J], which includes [all COLUMN Bs for COLUMN J]"
AK131,Fox,,Alaska,US,64.958,-147.618,community,1600000US0226870,Fox CDP,Census designated place,"Data represent information from nearest [COLUMN K], [COLUMN J], which includes [all COLUMN Bs for COLUMN J]"
AK510,Fox River,,Alaska,US,59.81640825,-151.0894667,community,1600000US0226910,Fox River CDP,Census designated place,"Data represent information from nearest [COLUMN K], [COLUMN J], which includes [all COLUMN Bs for COLUMN J]"
AK511,Fritz Creek,,Alaska,US,59.69146421,-151.3746205,community,1600000US0227090,Fritz Creek CDP,Census designated place,"Data represent information from nearest [COLUMN K], [COLUMN J], which includes [all COLUMN Bs for COLUMN J]"
AK512,Funny River,,Alaska,US,60.502067,-150.7939048,community,1600000US0227145,Funny River CDP,Census designated place,"Data represent information from nearest [COLUMN K], [COLUMN J], which includes [all COLUMN Bs for COLUMN J]"
AK132,Gakona,Ggax Kuna’,Alaska,US,62.3019,-145.302,community,1600000US0227420,Gakona CDP,Census designated place,"Data represent information from nearest [COLUMN K], [COLUMN J], which includes [all COLUMN Bs for COLUMN J]"
AK133,Galena,Notaalee Denh,Alaska,US,64.7333,-156.927,community,1600000US0227530,Galena city,Incorporated place,"Data represent information from nearest [COLUMN K], [COLUMN J], which includes [all COLUMN Bs for COLUMN J]"
AK513,Game Creek,,Alaska,US,58.07520481,-135.4840166,community,1600000US0227700,Game Creek CDP,Census designated place,"Data represent information from nearest [COLUMN K], [COLUMN J], which includes [all COLUMN Bs for COLUMN J]"
AK239,Matanuska,,Alaska,US,61.5421,-149.229,community,1600000US0228200,Gateway CDP,Census designated place,"Data represent information from nearest [COLUMN K], [COLUMN J], which includes [all COLUMN Bs for COLUMN J]"
AK514,Gateway,,Alaska,US,61.56376155,-149.2644961,community,1600000US0228200,Gateway CDP,Census designated place,"Data represent information from nearest [COLUMN K], [COLUMN J], which includes [all COLUMN Bs for COLUMN J]"
AK515,Glacier View,,Alaska,US,61.79768373,-147.6026158,community,1600000US0228590,Glacier View CDP,Census designated place,"Data represent information from nearest [COLUMN K], [COLUMN J], which includes [all COLUMN Bs for COLUMN J]"
AK137,Glennallen,,Alaska,US,62.1092,-145.546,community,1600000US0228740,Glennallen CDP,Census designated place,"Data represent information from nearest [COLUMN K], [COLUMN J], which includes [all COLUMN Bs for COLUMN J]"
AK516,Goldstream,,Alaska,US,64.9130934,-147.9051432,community,1600000US0229130,Goldstream CDP,Census designated place,"Data represent information from nearest [COLUMN K], [COLUMN J], which includes [all COLUMN Bs for COLUMN J]"
AK138,Golovin,Cingik / Siŋik,Alaska,US,64.5433,-163.029,community,1600000US0229180,Golovin city,Incorporated place,"Data represent information from nearest [COLUMN K], [COLUMN J], which includes [all COLUMN Bs for COLUMN J]"
AK139,Goodnews Bay,Mamterat,Alaska,US,59.1186,-161.589,community,1600000US0229290,Goodnews Bay city,Incorporated place,"Data represent information from nearest [COLUMN K], [COLUMN J], which includes [all COLUMN Bs for COLUMN J]"
AK140,Grayling,Sixno' Xidakagg,Alaska,US,62.9062,-160.077,community,1600000US0230060,Grayling city,Incorporated place,"Data represent information from nearest [COLUMN K], [COLUMN J], which includes [all COLUMN Bs for COLUMN J]"
AK141,Gulkana,C'uul C'ena',Alaska,US,62.2714,-145.382,community,1600000US0230500,Gulkana CDP,Census designated place,"Data represent information from nearest [COLUMN K], [COLUMN J], which includes [all COLUMN Bs for COLUMN J]"
AK142,Gustavus,,Alaska,US,58.4125,-135.738,community,1600000US0230940,Gustavus city,Incorporated place,"Data represent information from nearest [COLUMN K], [COLUMN J], which includes [all COLUMN Bs for COLUMN J]"
AK143,Haines,Deishú,Alaska,US,59.2358,-135.445,community,1600000US0231050,Haines CDP,Census designated place,"Data represent information from nearest [COLUMN K], [COLUMN J], which includes [all COLUMN Bs for COLUMN J]"
AK517,Halibut Cove,,Alaska,US,59.59064886,-151.2335112,community,1600000US0231270,Halibut Cove CDP,Census designated place,"Data represent information from nearest [COLUMN K], [COLUMN J], which includes [all COLUMN Bs for COLUMN J]"
AK518,Happy Valley,,Alaska,US,59.9327913,-151.7289902,community,1600000US0231710,Happy Valley CDP,Census designated place,"Data represent information from nearest [COLUMN K], [COLUMN J], which includes [all COLUMN Bs for COLUMN J]"
AK519,Harding-Birch Lakes,,Alaska,US,64.34811364,-146.8549936,community,1600000US0231765,Harding-Birch Lakes CDP,Census designated place,"Data represent information from nearest [COLUMN K], [COLUMN J], which includes [all COLUMN Bs for COLUMN J]"
AK146,Healy,,Alaska,US,63.8578,-148.966,community,1600000US0232150,Healy CDP,Census designated place,"Data represent information from nearest [COLUMN K], [COLUMN J], which includes [all COLUMN Bs for COLUMN J]"
AK378,Suntrana,,Alaska,US,63.8582,-148.846,community,1600000US0232150,Healy CDP,Census designated place,"Data represent information from nearest [COLUMN K], [COLUMN J], which includes [all COLUMN Bs for COLUMN J]"
AK147,Healy Lake,Mendees Cheeg,Alaska,US,63.9441,-144.755,community,1600000US0232310,Healy Lake CDP,Census designated place,"Data represent information from nearest [COLUMN K], [COLUMN J], which includes [all COLUMN Bs for COLUMN J]"
AK520,Hobart Bay,,Alaska,US,57.40096878,-133.4126522,community,1600000US0232550,Hobart Bay CDP,Census designated place,"Data represent information from nearest [COLUMN K], [COLUMN J], which includes [all COLUMN Bs for COLUMN J]"
AK150,Hollis,,Alaska,US,55.4879,-132.663,community,1600000US0232810,Hollis CDP,Census designated place,"Data represent information from nearest [COLUMN K], [COLUMN J], which includes [all COLUMN Bs for COLUMN J]"
AK151,Holy Cross,Ingirraller / Deloy Chet,Alaska,US,62.1994,-159.771,community,1600000US0233030,Holy Cross city,Incorporated place,"Data represent information from nearest [COLUMN K], [COLUMN J], which includes [all COLUMN Bs for COLUMN J]"
AK152,Homer,,Alaska,US,59.6425,-151.548,community,1600000US0233140,Homer city,Incorporated place,"Data represent information from nearest [COLUMN K], [COLUMN J], which includes [all COLUMN Bs for COLUMN J]"
AK153,Hoonah,Xunaa / Gaaw Yat’aḵ Aan,Alaska,US,58.11,-135.444,community,1600000US0233360,Hoonah city,Incorporated place,"Data represent information from nearest [COLUMN K], [COLUMN J], which includes [all COLUMN Bs for COLUMN J]"
AK154,Hooper Bay,Naparyaarmiut,Alaska,US,61.5311,-166.097,community,1600000US0233470,Hooper Bay city,Incorporated place,"Data represent information from nearest [COLUMN K], [COLUMN J], which includes [all COLUMN Bs for COLUMN J]"
AK155,Hope,,Alaska,US,60.9203,-149.64,community,1600000US0233580,Hope CDP,Census designated place,"Data represent information from nearest [COLUMN K], [COLUMN J], which includes [all COLUMN Bs for COLUMN J]"
AK156,Houston,,Alaska,US,61.6302,-149.818,community,1600000US0233800,Houston city,Incorporated place,"Data represent information from nearest [COLUMN K], [COLUMN J], which includes [all COLUMN Bs for COLUMN J]"
AK157,Hughes,Hut’odlee Kkaakk’et,Alaska,US,66.0488,-154.255,community,1600000US0233910,Hughes city,Incorporated place,"Data represent information from nearest [COLUMN K], [COLUMN J], which includes [all COLUMN Bs for COLUMN J]"
AK158,Huslia,Ts’aateyhdenaadekk’onh Denh,Alaska,US,65.6986,-156.4,community,1600000US0234350,Huslia city,Incorporated place,"Data represent information from nearest [COLUMN K], [COLUMN J], which includes [all COLUMN Bs for COLUMN J]"
AK159,Hydaburg,Higdáa G̱ándlaay,Alaska,US,55.208,-132.827,community,1600000US0234460,Hydaburg city,Incorporated place,"Data represent information from nearest [COLUMN K], [COLUMN J], which includes [all COLUMN Bs for COLUMN J]"
AK160,Hyder,,Alaska,US,55.9169,-130.025,community,1600000US0234570,Hyder CDP,Census designated place,"Data represent information from nearest [COLUMN K], [COLUMN J], which includes [all COLUMN Bs for COLUMN J]"
AK162,Igiugig,Igyaraq,Alaska,US,59.3278,-155.895,community,1600000US0234790,Igiugig CDP,Census designated place,"Data represent information from nearest [COLUMN K], [COLUMN J], which includes [all COLUMN Bs for COLUMN J]"
AK164,Iliamna,Illiamna,Alaska,US,59.7536,-154.817,community,1600000US0235120,Iliamna CDP,Census designated place,"Data represent information from nearest [COLUMN K], [COLUMN J], which includes [all COLUMN Bs for COLUMN J]"
AK169,Ivanof Bay,,Alaska,US,55.8996,-159.507,community,1600000US0235890,Ivanof Bay CDP,Census designated place,"Data represent information from nearest [COLUMN K], [COLUMN J], which includes [all COLUMN Bs for COLUMN J]"
AK173,Kachemak,,Alaska,US,59.6488,-151.451,community,1600000US0236540,Kachemak city,Incorporated place,"Data represent information from nearest [COLUMN K], [COLUMN J], which includes [all COLUMN Bs for COLUMN J]"
AK174,Kake,Ḵéex̱ʼ,Alaska,US,56.9758,-133.947,community,1600000US0236770,Kake city,Incorporated place,"Data represent information from nearest [COLUMN K], [COLUMN J], which includes [all COLUMN Bs for COLUMN J]"
AK176,Kaktovik,Qaaktuġvik,Alaska,US,70.1131,-143.6623,community,1600000US0236990,Kaktovik city,Incorporated place,"Data represent information from nearest [COLUMN K], [COLUMN J], which includes [all COLUMN Bs for COLUMN J]"
AK177,Kalifornsky,Unhghenesditnu,Alaska,US,60.4412,-151.198,community,1600000US0237250,Kalifornsky CDP,Census designated place,"Data represent information from nearest [COLUMN K], [COLUMN J], which includes [all COLUMN Bs for COLUMN J]"
AK179,Kaltag,Ggaał Doh,Alaska,US,64.3272,-158.722,community,1600000US0237430,Kaltag city,Incorporated place,"Data represent information from nearest [COLUMN K], [COLUMN J], which includes [all COLUMN Bs for COLUMN J]"
AK181,Karluk,Kal’ut,Alaska,US,57.5719,-154.455,community,1600000US0237540,Karluk CDP,Census designated place,"Data represent information from nearest [COLUMN K], [COLUMN J], which includes [all COLUMN Bs for COLUMN J]"
AK182,Kasaan,Gasa'áan,Alaska,US,55.5389,-132.401,community,1600000US0237650,Kasaan city,Incorporated place,"Data represent information from nearest [COLUMN K], [COLUMN J], which includes [all COLUMN Bs for COLUMN J]"
AK185,Kasigluk,Kassigluq,Alaska,US,60.8955,-162.521,community,1600000US0237975,Kasigluk CDP,Census designated place,"Data represent information from nearest [COLUMN K], [COLUMN J], which includes [all COLUMN Bs for COLUMN J]"
AK186,Kasilof,,Alaska,US,60.3375,-151.274,community,1600000US0238090,Kasilof CDP,Census designated place,"Data represent information from nearest [COLUMN K], [COLUMN J], which includes [all COLUMN Bs for COLUMN J]"
AK188,Kenai,Shk'ituk't,Alaska,US,60.5544,-151.258,community,1600000US0238420,Kenai city,Incorporated place,"Data represent information from nearest [COLUMN K], [COLUMN J], which includes [all COLUMN Bs for COLUMN J]"
AK189,Kenny Lake,,Alaska,US,61.7379,-144.945,community,1600000US0238910,Kenny Lake CDP,Census designated place,"Data represent information from nearest [COLUMN K], [COLUMN J], which includes [all COLUMN Bs for COLUMN J]"
AK232,Lower Tonsina,Kentsii Cae'e,Alaska,US,61.655,-144.659,community,1600000US0238910,Kenny Lake CDP,Census designated place,"Data represent information from nearest [COLUMN K], [COLUMN J], which includes [all COLUMN Bs for COLUMN J]"
AK191,Ketchikan,Kichx̱áan,Alaska,US,55.3422,-131.646,community,1600000US0238970,Ketchikan city,Incorporated place,"Data represent information from nearest [COLUMN K], [COLUMN J], which includes [all COLUMN Bs for COLUMN J]"
AK192,Kiana,Katyaaq,Alaska,US,66.975,-160.423,community,1600000US0239300,Kiana city,Incorporated place,"Data represent information from nearest [COLUMN K], [COLUMN J], which includes [all COLUMN Bs for COLUMN J]"
AK196,King Salmon,,Alaska,US,58.6883,-156.661,community,1600000US0239630,King Salmon CDP,Census designated place,"Data represent information from nearest [COLUMN K], [COLUMN J], which includes [all COLUMN Bs for COLUMN J]"
AK197,Kipnuk,Qipnek,Alaska,US,59.9389,-164.041,community,1600000US0239740,Kipnuk CDP,Census designated place,"Data represent information from nearest [COLUMN K], [COLUMN J], which includes [all COLUMN Bs for COLUMN J]"
AK198,Kivalina,Kivaliñiq,Alaska,US,67.7269,-164.533,community,1600000US0239960,Kivalina city,Incorporated place,"Data represent information from nearest [COLUMN K], [COLUMN J], which includes [all COLUMN Bs for COLUMN J]"
AK202,Klukwan,Tlákw.aan,Alaska,US,59.3991,-135.894,community,1600000US0240510,Klukwan CDP,Census designated place,"Data represent information from nearest [COLUMN K], [COLUMN J], which includes [all COLUMN Bs for COLUMN J]"
AK203,Knik,,Alaska,US,61.4578,-149.729,community,1600000US0240645,Knik-Fairview CDP,Census designated place,"Data represent information from nearest [COLUMN K], [COLUMN J], which includes [all COLUMN Bs for COLUMN J]"
AK521,Knik River,,Alaska,US,61.48124818,-149.1299568,community,1600000US0240670,Knik River CDP,Census designated place,"Data represent information from nearest [COLUMN K], [COLUMN J], which includes [all COLUMN Bs for COLUMN J]"
AK204,Kobuk,Laugviik,Alaska,US,66.9072,-156.881,community,1600000US0240840,Kobuk city,Incorporated place,"Data represent information from nearest [COLUMN K], [COLUMN J], which includes [all COLUMN Bs for COLUMN J]"
AK205,Kodiak,Sun'aq,Alaska,US,57.79,-152.407,community,1600000US0240950,Kodiak city,Incorporated place,"Data represent information from nearest [COLUMN K], [COLUMN J], which includes [all COLUMN Bs for COLUMN J]"
AK522,Kodiak Station,,Alaska,US,57.75517963,-152.5139524,community,1600000US0241210,Kodiak Station CDP,Census designated place,"Data represent information from nearest [COLUMN K], [COLUMN J], which includes [all COLUMN Bs for COLUMN J]"
AK206,Kokhanok,Qarr’unaq,Alaska,US,59.4426,-154.761,community,1600000US0241280,Kokhanok CDP,Census designated place,"Data represent information from nearest [COLUMN K], [COLUMN J], which includes [all COLUMN Bs for COLUMN J]"
AK208,Koliganek,Qalirneq,Alaska,US,59.7286,-157.284,community,1600000US0241500,Koliganek CDP,Census designated place,"Data represent information from nearest [COLUMN K], [COLUMN J], which includes [all COLUMN Bs for COLUMN J]"
AK209,Kongiganak,Kangirnaq,Alaska,US,59.9647,-162.877,community,1600000US0241610,Kongiganak CDP,Census designated place,"Data represent information from nearest [COLUMN K], [COLUMN J], which includes [all COLUMN Bs for COLUMN J]"
AK210,Kotlik,Qerrulliik,Alaska,US,63.0341,-163.553,community,1600000US0241720,Kotlik city,Incorporated place,"Data represent information from nearest [COLUMN K], [COLUMN J], which includes [all COLUMN Bs for COLUMN J]"
AK211,Kotzebue,Qikiqtaġruk,Alaska,US,66.8983,-162.597,community,1600000US0241830,Kotzebue city,Incorporated place,"Data represent information from nearest [COLUMN K], [COLUMN J], which includes [all COLUMN Bs for COLUMN J]"
AK212,Koyuk,Kuuyuk,Alaska,US,64.9319,-161.157,community,1600000US0241940,Koyuk city,Incorporated place,"Data represent information from nearest [COLUMN K], [COLUMN J], which includes [all COLUMN Bs for COLUMN J]"
AK213,Koyukuk,Meneelghaadze’ T’oh,Alaska,US,64.8802,-157.701,community,1600000US0242050,Koyukuk city,Incorporated place,"Data represent information from nearest [COLUMN K], [COLUMN J], which includes [all COLUMN Bs for COLUMN J]"
AK214,Kupreanof,,Alaska,US,56.8153,-133.006,community,1600000US0242160,Kupreanof city,Incorporated place,"Data represent information from nearest [COLUMN K], [COLUMN J], which includes [all COLUMN Bs for COLUMN J]"
AK217,Kwethluk,Kuiggluk,Alaska,US,60.8122,-161.436,community,1600000US0242380,Kwethluk city,Incorporated place,"Data represent information from nearest [COLUMN K], [COLUMN J], which includes [all COLUMN Bs for COLUMN J]"
AK218,Kwigillingok,Kuigilnguq,Alaska,US,59.8644,-163.134,community,1600000US0242490,Kwigillingok CDP,Census designated place,"Data represent information from nearest [COLUMN K], [COLUMN J], which includes [all COLUMN Bs for COLUMN J]"
AK523,Lake Louise,,Alaska,US,62.27206497,-146.5351386,community,1600000US0242805,Lake Louise CDP,Census designated place,"Data represent information from nearest [COLUMN K], [COLUMN J], which includes [all COLUMN Bs for COLUMN J]"
AK220,Lake Minchumina,Menchuh Mene’,Alaska,US,63.8828,-152.312,community,1600000US0242820,Lake Minchumina CDP,Census designated place,"Data represent information from nearest [COLUMN K], [COLUMN J], which includes [all COLUMN Bs for COLUMN J]"
AK221,Larsen Bay,Uyaqsaq,Alaska,US,57.54,-153.979,community,1600000US0243040,Larsen Bay city,Incorporated place,"Data represent information from nearest [COLUMN K], [COLUMN J], which includes [all COLUMN Bs for COLUMN J]"
AK524,Lazy Mountain,,Alaska,US,61.61524529,-149.0608095,community,1600000US0243260,Lazy Mountain CDP,Census designated place,"Data represent information from nearest [COLUMN K], [COLUMN J], which includes [all COLUMN Bs for COLUMN J]"
AK226,Levelock,Liivlek,Alaska,US,59.115,-156.857,community,1600000US0243810,Levelock CDP,Census designated place,"Data represent information from nearest [COLUMN K], [COLUMN J], which includes [all COLUMN Bs for COLUMN J]"
AK228,Lime Village,Hekdichen Hdakaq',Alaska,US,61.3564,-155.436,community,1600000US0244030,Lime Village CDP,Census designated place,"Data represent information from nearest [COLUMN K], [COLUMN J], which includes [all COLUMN Bs for COLUMN J]"
AK229,Livengood,,Alaska,US,65.5244,-148.545,community,1600000US0244580,Livengood CDP,Census designated place,"Data represent information from nearest [COLUMN K], [COLUMN J], which includes [all COLUMN Bs for COLUMN J]"
AK230,Loring,,Alaska,US,55.603,-131.632,community,1600000US0245020,Loring CDP,Census designated place,"Data represent information from nearest [COLUMN K], [COLUMN J], which includes [all COLUMN Bs for COLUMN J]"
AK525,Lowell Point,,Alaska,US,60.07088719,-149.4420443,community,1600000US0245295,Lowell Point CDP,Census designated place,"Data represent information from nearest [COLUMN K], [COLUMN J], which includes [all COLUMN Bs for COLUMN J]"
AK231,Lower Kalskag,Qalqaq,Alaska,US,61.5122,-160.358,community,1600000US0245460,Lower Kalskag city,Incorporated place,"Data represent information from nearest [COLUMN K], [COLUMN J], which includes [all COLUMN Bs for COLUMN J]"
AK526,Lutak,,Alaska,US,59.3232914,-135.5602466,community,1600000US0245700,Lutak CDP,Census designated place,"Data represent information from nearest [COLUMN K], [COLUMN J], which includes [all COLUMN Bs for COLUMN J]"
AK240,McCarthy,,Alaska,US,61.4333,-142.922,community,1600000US0245790,McCarthy CDP,Census designated place,"Data represent information from nearest [COLUMN K], [COLUMN J], which includes [all COLUMN Bs for COLUMN J]"
AK241,McGrath,Tochak’,Alaska,US,62.9564,-155.596,community,1600000US0246010,McGrath city,Incorporated place,"Data represent information from nearest [COLUMN K], [COLUMN J], which includes [all COLUMN Bs for COLUMN J]"
AK234,Manley Hot Springs,Too Naaleł Denh,Alaska,US,65.0011,-150.634,community,1600000US0246780,Manley Hot Springs CDP,Census designated place,"Data represent information from nearest [COLUMN K], [COLUMN J], which includes [all COLUMN Bs for COLUMN J]"
AK235,Manokotak,Manuquutaq,Alaska,US,58.9796,-159.053,community,1600000US0246890,Manokotak city,Incorporated place,"Data represent information from nearest [COLUMN K], [COLUMN J], which includes [all COLUMN Bs for COLUMN J]"
AK237,Marshall,Masserculleq,Alaska,US,61.8778,-162.081,community,1600000US0247000,Marshall city,Incorporated place,"Data represent information from nearest [COLUMN K], [COLUMN J], which includes [all COLUMN Bs for COLUMN J]"
AK527,Meadow Lakes,,Alaska,US,61.5845686,-149.6280378,community,1600000US0247735,Meadow Lakes CDP,Census designated place,"Data represent information from nearest [COLUMN K], [COLUMN J], which includes [all COLUMN Bs for COLUMN J]"
AK245,Mekoryuk,Mikuryar,Alaska,US,60.388,-166.185,community,1600000US0247990,Mekoryuk city,Incorporated place,"Data represent information from nearest [COLUMN K], [COLUMN J], which includes [all COLUMN Bs for COLUMN J]"
AK246,Mendeltna,,Alaska,US,62.0487,-146.5386,community,1600000US0248200,Mendeltna CDP,Census designated place,"Data represent information from nearest [COLUMN K], [COLUMN J], which includes [all COLUMN Bs for COLUMN J]"
AK247,Mentasta Lake,Mendaesde,Alaska,US,62.9212,-143.792,community,1600000US0248540,Mentasta Lake CDP,Census designated place,"Data represent information from nearest [COLUMN K], [COLUMN J], which includes [all COLUMN Bs for COLUMN J]"
AK528,Mertarvik,,Alaska,US,60.81959599,-164.5122613,community,1600000US0248590,Mertarvik CDP,Census designated place,"Data represent information from nearest [COLUMN K], [COLUMN J], which includes [all COLUMN Bs for COLUMN J]"
AK529,Mill Bay,,Alaska,US,57.81953299,-152.3559482,community,1600000US0249200,Mill Bay CDP,Census designated place,"Data represent information from nearest [COLUMN K], [COLUMN J], which includes [all COLUMN Bs for COLUMN J]"
AK250,Minto,,Alaska,US,65.1496,-149.3504,community,1600000US0249530,Minto CDP,Census designated place,"Data represent information from nearest [COLUMN K], [COLUMN J], which includes [all COLUMN Bs for COLUMN J]"
AK530,Moose Creek,,Alaska,US,64.71553531,-147.1644595,community,1600000US0250080,Moose Creek CDP,Census designated place,"Data represent information from nearest [COLUMN K], [COLUMN J], which includes [all COLUMN Bs for COLUMN J]"
AK251,Moose Pass,,Alaska,US,60.4876,-149.367,community,1600000US0250190,Moose Pass CDP,Census designated place,"Data represent information from nearest [COLUMN K], [COLUMN J], which includes [all COLUMN Bs for COLUMN J]"
AK531,Mosquito Lake,,Alaska,US,59.42457558,-136.0160446,community,1600000US0250800,Mosquito Lake CDP,Census designated place,"Data represent information from nearest [COLUMN K], [COLUMN J], which includes [all COLUMN Bs for COLUMN J]"
AK254,Mountain Village,Asaacaryaraq,Alaska,US,62.0884,-163.72,community,1600000US0251180,Mountain Village city,Incorporated place,"Data represent information from nearest [COLUMN K], [COLUMN J], which includes [all COLUMN Bs for COLUMN J]"
AK532,Mud Bay,,Alaska,US,59.17019892,-135.3664956,community,1600000US0251455,Mud Bay CDP,Census designated place,"Data represent information from nearest [COLUMN K], [COLUMN J], which includes [all COLUMN Bs for COLUMN J]"
AK256,Nabesna,Naambia Niign Daacheeg,Alaska,US,62.3719,-143.009,community,1600000US0251960,Nabesna CDP,Census designated place,"Data represent information from nearest [COLUMN K], [COLUMN J], which includes [all COLUMN Bs for COLUMN J]"
AK227,Libbyville,,Alaska,US,58.7781,-157.056,community,1600000US0252060,Naknek CDP,Census designated place,"Data represent information from nearest [COLUMN K], [COLUMN J], which includes [all COLUMN Bs for COLUMN J]"
AK258,Naknek,Nakniq,Alaska,US,58.7283,-157.014,community,1600000US0252060,Naknek CDP,Census designated place,"Data represent information from nearest [COLUMN K], [COLUMN J], which includes [all COLUMN Bs for COLUMN J]"
AK259,Nanwalek,English Bay,Alaska,US,59.354,-151.916,community,1600000US0252210,Nanwalek CDP,Census designated place,"Data represent information from nearest [COLUMN K], [COLUMN J], which includes [all COLUMN Bs for COLUMN J]"
AK261,Napakiak,Naparyarraq,Alaska,US,60.6967,-161.952,community,1600000US0252390,Napakiak city,Incorporated place,"Data represent information from nearest [COLUMN K], [COLUMN J], which includes [all COLUMN Bs for COLUMN J]"
AK263,Napaskiak,Napaskiaq,Alaska,US,60.708,-161.766,community,1600000US0252720,Napaskiak city,Incorporated place,"Data represent information from nearest [COLUMN K], [COLUMN J], which includes [all COLUMN Bs for COLUMN J]"
AK533,Naukati Bay,,Alaska,US,55.87620109,-133.1920858,community,1600000US0252845,Naukati Bay CDP,Census designated place,"Data represent information from nearest [COLUMN K], [COLUMN J], which includes [all COLUMN Bs for COLUMN J]"
AK265,Nelchina,,Alaska,US,61.996,-146.8203,community,1600000US0252915,Nelchina CDP,Census designated place,"Data represent information from nearest [COLUMN K], [COLUMN J], which includes [all COLUMN Bs for COLUMN J]"
AK266,Nelson Lagoon,Niilsanam Alĝuudaa,Alaska,US,56.0012,-161.201,community,1600000US0252940,Nelson Lagoon CDP,Census designated place,"Data represent information from nearest [COLUMN K], [COLUMN J], which includes [all COLUMN Bs for COLUMN J]"
AK267,Nenana,Toghotili,Alaska,US,64.5638,-149.093,community,1600000US0253050,Nenana city,Incorporated place,"Data represent information from nearest [COLUMN K], [COLUMN J], which includes [all COLUMN Bs for COLUMN J]"
AK270,Newhalen,Nuuriileng,Alaska,US,59.72,-154.897,community,1600000US0253270,Newhalen city,Incorporated place,"Data represent information from nearest [COLUMN K], [COLUMN J], which includes [all COLUMN Bs for COLUMN J]"
AK269,New Stuyahok,Cetuyaraq,Alaska,US,59.4528,-157.312,community,1600000US0253710,New Stuyahok city,Incorporated place,"Data represent information from nearest [COLUMN K], [COLUMN J], which includes [all COLUMN Bs for COLUMN J]"
AK271,Newtok,Niugtaq,Alaska,US,60.9427,-164.629,community,1600000US0253820,Newtok CDP,Census designated place,"Data represent information from nearest [COLUMN K], [COLUMN J], which includes [all COLUMN Bs for COLUMN J]"
AK272,Nightmute,Negtemiut,Alaska,US,60.4794,-164.724,community,1600000US0253930,Nightmute city,Incorporated place,"Data represent information from nearest [COLUMN K], [COLUMN J], which includes [all COLUMN Bs for COLUMN J]"
AK273,Nikiski,,Alaska,US,60.6394,-151.334,community,1600000US0254050,Nikiski CDP,Census designated place,"Data represent information from nearest [COLUMN K], [COLUMN J], which includes [all COLUMN Bs for COLUMN J]"
AK274,Nikolaevsk,,Alaska,US,59.8109,-151.623,community,1600000US0254085,Nikolaevsk CDP,Census designated place,"Data represent information from nearest [COLUMN K], [COLUMN J], which includes [all COLUMN Bs for COLUMN J]"
AK275,Nikolai,Nikolai,Alaska,US,63.0133,-154.375,community,1600000US0254150,Nikolai city,Incorporated place,"Data represent information from nearest [COLUMN K], [COLUMN J], which includes [all COLUMN Bs for COLUMN J]"
AK276,Nikolski,Chalukax̂,Alaska,US,52.938,-168.868,community,1600000US0254260,Nikolski CDP,Census designated place,"Data represent information from nearest [COLUMN K], [COLUMN J], which includes [all COLUMN Bs for COLUMN J]"
AK278,Ninilchik,,Alaska,US,60.0514,-151.669,community,1600000US0254480,Ninilchik CDP,Census designated place,"Data represent information from nearest [COLUMN K], [COLUMN J], which includes [all COLUMN Bs for COLUMN J]"
AK279,Noatak,Nuataam Kuuŋa,Alaska,US,67.5711,-162.965,community,1600000US0254700,Noatak CDP,Census designated place,"Data represent information from nearest [COLUMN K], [COLUMN J], which includes [all COLUMN Bs for COLUMN J]"
AK280,Nome,Sitŋasuaq,Alaska,US,64.5107,-165.4447,community,1600000US0254920,Nome city,Incorporated place,"Data represent information from nearest [COLUMN K], [COLUMN J], which includes [all COLUMN Bs for COLUMN J]"
AK281,Nondalton,Nundaltin,Alaska,US,59.9736,-154.846,community,1600000US0255030,Nondalton city,Incorporated place,"Data represent information from nearest [COLUMN K], [COLUMN J], which includes [all COLUMN Bs for COLUMN J]"
AK282,Noorvik,Nuurvik,Alaska,US,66.8383,-161.033,community,1600000US0255140,Noorvik city,Incorporated place,"Data represent information from nearest [COLUMN K], [COLUMN J], which includes [all COLUMN Bs for COLUMN J]"
AK534,North Lakes,,Alaska,US,61.61351546,-149.3298051,community,1600000US0255745,North Lakes CDP,Census designated place,"Data represent information from nearest [COLUMN K], [COLUMN J], which includes [all COLUMN Bs for COLUMN J]"
AK148,Highland Park,,Alaska,US,64.7582,-147.371,community,1600000US0255910,North Pole city,Incorporated place,"Data represent information from nearest [COLUMN K], [COLUMN J], which includes [all COLUMN Bs for COLUMN J]"
AK283,North Pole,,Alaska,US,64.7511,-147.349,community,1600000US0255910,North Pole city,Incorporated place,"Data represent information from nearest [COLUMN K], [COLUMN J], which includes [all COLUMN Bs for COLUMN J]"
AK187,Kathakne,,Alaska,US,62.9692,-141.832,community,1600000US0256220,Northway CDP,Census designated place,"Data represent information from nearest [COLUMN K], [COLUMN J], which includes [all COLUMN Bs for COLUMN J]"
AK284,Northway,K’ehtthiign,Alaska,US,62.9616,-141.937,community,1600000US0256220,Northway CDP,Census designated place,"Data represent information from nearest [COLUMN K], [COLUMN J], which includes [all COLUMN Bs for COLUMN J]"
AK285,Northway Indian Village,,Alaska,US,62.9832,-141.949,community,1600000US0256220,Northway CDP,Census designated place,"Data represent information from nearest [COLUMN K], [COLUMN J], which includes [all COLUMN Bs for COLUMN J]"
AK286,Northway Junction,,Alaska,US,63.0173,-141.792,community,1600000US0256220,Northway CDP,Census designated place,"Data represent information from nearest [COLUMN K], [COLUMN J], which includes [all COLUMN Bs for COLUMN J]"
AK287,Nuiqsut,Nuiqsat,Alaska,US,70.2175,-150.976,community,1600000US0256320,Nuiqsut city,Incorporated place,"Data represent information from nearest [COLUMN K], [COLUMN J], which includes [all COLUMN Bs for COLUMN J]"
AK288,Nulato,Noolaaghe Doh,Alaska,US,64.7194,-158.103,community,1600000US0256350,Nulato city,Incorporated place,"Data represent information from nearest [COLUMN K], [COLUMN J], which includes [all COLUMN Bs for COLUMN J]"
AK289,Nunam Iqua,Sheldon Point,Alaska,US,62.5336,-164.841,community,1600000US0256600,Nunam Iqua city,Incorporated place,"Data represent information from nearest [COLUMN K], [COLUMN J], which includes [all COLUMN Bs for COLUMN J]"
AK290,Nunapitchuk,Nunapicuar,Alaska,US,60.8969,-162.459,community,1600000US0256680,Nunapitchuk city,Incorporated place,"Data represent information from nearest [COLUMN K], [COLUMN J], which includes [all COLUMN Bs for COLUMN J]"
AK293,Old Harbor,Nuniaq,Alaska,US,57.2028,-153.304,community,1600000US0257340,Old Harbor city,Incorporated place,"Data represent information from nearest [COLUMN K], [COLUMN J], which includes [all COLUMN Bs for COLUMN J]"
AK296,Oscarville,Kuiggayagaq,Alaska,US,60.7273,-161.79,community,1600000US0258330,Oscarville CDP,Census designated place,"Data represent information from nearest [COLUMN K], [COLUMN J], which includes [all COLUMN Bs for COLUMN J]"
AK298,Ouzinkie,Uusenkaa,Alaska,US,57.9236,-152.496,community,1600000US0258550,Ouzinkie city,Incorporated place,"Data represent information from nearest [COLUMN K], [COLUMN J], which includes [all COLUMN Bs for COLUMN J]"
AK300,Palmer,,Alaska,US,61.5997,-149.113,community,1600000US0258660,Palmer city,Incorporated place,"Data represent information from nearest [COLUMN K], [COLUMN J], which includes [all COLUMN Bs for COLUMN J]"
AK303,Paxson,,Alaska,US,63.033,-145.4979,community,1600000US0259320,Paxson CDP,Census designated place,"Data represent information from nearest [COLUMN K], [COLUMN J], which includes [all COLUMN Bs for COLUMN J]"
AK304,Pedro Bay,,Alaska,US,59.7914,-154.098,community,1600000US0259540,Pedro Bay CDP,Census designated place,"Data represent information from nearest [COLUMN K], [COLUMN J], which includes [all COLUMN Bs for COLUMN J]"
AK305,Pelican,K'udeis'x̱'e,Alaska,US,57.9608,-136.227,community,1600000US0259650,Pelican city,Incorporated place,"Data represent information from nearest [COLUMN K], [COLUMN J], which includes [all COLUMN Bs for COLUMN J]"
AK307,Perryville,Perry-q,Alaska,US,55.9119,-159.166,community,1600000US0260200,Perryville CDP,Census designated place,"Data represent information from nearest [COLUMN K], [COLUMN J], which includes [all COLUMN Bs for COLUMN J]"
AK308,Petersburg,Séet Ká,Alaska,US,56.8125,-132.955,community,1600000US0260310,Petersburg CDP,Census designated place,"Data represent information from nearest [COLUMN K], [COLUMN J], which includes [all COLUMN Bs for COLUMN J]"
AK309,Petersville,,Alaska,US,62.373,-150.7332,community,1600000US0260460,Petersville CDP,Census designated place,"Data represent information from nearest [COLUMN K], [COLUMN J], which includes [all COLUMN Bs for COLUMN J]"
AK311,Pilot Point,Agisaq,Alaska,US,57.5641,-157.579,community,1600000US0260640,Pilot Point city,Incorporated place,"Data represent information from nearest [COLUMN K], [COLUMN J], which includes [all COLUMN Bs for COLUMN J]"
AK312,Pilot Station,Tuutalgaq,Alaska,US,61.9389,-162.875,community,1600000US0260750,Pilot Station city,Incorporated place,"Data represent information from nearest [COLUMN K], [COLUMN J], which includes [all COLUMN Bs for COLUMN J]"
AK313,Pitkas Point,Negeqliim Painga,Alaska,US,62.0328,-163.288,community,1600000US0260860,Pitkas Point CDP,Census designated place,"Data represent information from nearest [COLUMN K], [COLUMN J], which includes [all COLUMN Bs for COLUMN J]"
AK314,Platinum,Arviiq,Alaska,US,59.013,-161.816,community,1600000US0261080,Platinum city,Incorporated place,"Data represent information from nearest [COLUMN K], [COLUMN J], which includes [all COLUMN Bs for COLUMN J]"
AK535,Pleasant Valley,,Alaska,US,64.88020756,-146.8874504,community,1600000US0261120,Pleasant Valley CDP,Census designated place,"Data represent information from nearest [COLUMN K], [COLUMN J], which includes [all COLUMN Bs for COLUMN J]"
AK315,Point Baker,,Alaska,US,56.3528,-133.621,community,1600000US0261190,Point Baker CDP,Census designated place,"Data represent information from nearest [COLUMN K], [COLUMN J], which includes [all COLUMN Bs for COLUMN J]"
AK316,Point Hope,Tikiġaq,Alaska,US,68.34801,-166.734,community,1600000US0261630,Point Hope city,Incorporated place,"Data represent information from nearest [COLUMN K], [COLUMN J], which includes [all COLUMN Bs for COLUMN J]"
AK317,Point Lay,Kali,Alaska,US,69.7574,-163.051,community,1600000US0261700,Point Lay CDP,Census designated place,"Data represent information from nearest [COLUMN K], [COLUMN J], which includes [all COLUMN Bs for COLUMN J]"
AK536,Point MacKenzie,,Alaska,US,61.34706346,-150.0658508,community,1600000US0261788,Point MacKenzie CDP,Census designated place,"Data represent information from nearest [COLUMN K], [COLUMN J], which includes [all COLUMN Bs for COLUMN J]"
AK537,Point Possession,,Alaska,US,60.95356787,-150.674436,community,1600000US0261825,Point Possession CDP,Census designated place,"Data represent information from nearest [COLUMN K], [COLUMN J], which includes [all COLUMN Bs for COLUMN J]"
AK538,Pope-Vannoy Landing,,Alaska,US,59.5354251,-154.5051642,community,1600000US0262125,Pope-Vannoy Landing CDP,Census designated place,"Data represent information from nearest [COLUMN K], [COLUMN J], which includes [all COLUMN Bs for COLUMN J]"
AK329,Portage Creek,,Alaska,US,58.9006,-157.714,community,1600000US0262285,Portage Creek CDP,Census designated place,"Data represent information from nearest [COLUMN K], [COLUMN J], which includes [all COLUMN Bs for COLUMN J]"
AK319,Port Alexander,,Alaska,US,56.2497,-134.644,community,1600000US0262510,Port Alexander city,Incorporated place,"Data represent information from nearest [COLUMN K], [COLUMN J], which includes [all COLUMN Bs for COLUMN J]"
AK320,Port Alsworth,,Alaska,US,60.2025,-154.313,community,1600000US0262620,Port Alsworth CDP,Census designated place,"Data represent information from nearest [COLUMN K], [COLUMN J], which includes [all COLUMN Bs for COLUMN J]"
AK539,Port Clarence,,Alaska,US,65.25725505,-166.8661384,community,1600000US0263170,Port Clarence CDP,Census designated place,"Data represent information from nearest [COLUMN K], [COLUMN J], which includes [all COLUMN Bs for COLUMN J]"
AK322,Port Graham,Paluwik,Alaska,US,59.3514,-151.83,community,1600000US0263280,Port Graham CDP,Census designated place,"Data represent information from nearest [COLUMN K], [COLUMN J], which includes [all COLUMN Bs for COLUMN J]"
AK323,Port Heiden,Masrriq,Alaska,US,56.9566,-158.645,community,1600000US0263390,Port Heiden city,Incorporated place,"Data represent information from nearest [COLUMN K], [COLUMN J], which includes [all COLUMN Bs for COLUMN J]"
AK324,Port Lions,Masiqsirraq,Alaska,US,57.8675,-152.882,community,1600000US0263610,Port Lions city,Incorporated place,"Data represent information from nearest [COLUMN K], [COLUMN J], which includes [all COLUMN Bs for COLUMN J]"
AK540,Primrose,,Alaska,US,60.32364816,-149.357599,community,1600000US0264240,Primrose CDP,Census designated place,"Data represent information from nearest [COLUMN K], [COLUMN J], which includes [all COLUMN Bs for COLUMN J]"
AK331,Prudhoe Bay,,Alaska,US,70.2366,-148.38,community,1600000US0264380,Prudhoe Bay CDP,Census designated place,"Data represent information from nearest [COLUMN K], [COLUMN J], which includes [all COLUMN Bs for COLUMN J]"
AK93,Deadhorse,,Alaska,US,70.2097,-148.418,community,1600000US0264380,Prudhoe Bay CDP,Census designated place,"Data represent information from nearest [COLUMN K], [COLUMN J], which includes [all COLUMN Bs for COLUMN J]"
AK332,Quinhagak,Kuinerraq,Alaska,US,59.7489,-161.916,community,1600000US0264600,Quinhagak city,Incorporated place,"Data represent information from nearest [COLUMN K], [COLUMN J], which includes [all COLUMN Bs for COLUMN J]"
AK334,Rampart,Dleł Taaneets,Alaska,US,65.5049,-150.17,community,1600000US0264820,Rampart CDP,Census designated place,"Data represent information from nearest [COLUMN K], [COLUMN J], which includes [all COLUMN Bs for COLUMN J]"
AK335,Red Devil,,Alaska,US,61.7611,-157.313,community,1600000US0264930,Red Devil CDP,Census designated place,"Data represent information from nearest [COLUMN K], [COLUMN J], which includes [all COLUMN Bs for COLUMN J]"
AK541,Red Dog Mine,,Alaska,US,68.03602282,-162.8964321,community,1600000US0264980,Red Dog Mine CDP,Census designated place,"Data represent information from nearest [COLUMN K], [COLUMN J], which includes [all COLUMN Bs for COLUMN J]"
AK542,Ridgeway,,Alaska,US,60.51653946,-151.0582296,community,1600000US0265345,Ridgeway CDP,Census designated place,"Data represent information from nearest [COLUMN K], [COLUMN J], which includes [all COLUMN Bs for COLUMN J]"
AK337,Ruby,Tl'aa'ologhe,Alaska,US,64.7394,-155.487,community,1600000US0265590,Ruby city,Incorporated place,"Data represent information from nearest [COLUMN K], [COLUMN J], which includes [all COLUMN Bs for COLUMN J]"
AK338,Russian Mission,Iqugmiut,Alaska,US,61.7856,-161.325,community,1600000US0265700,Russian Mission city,Incorporated place,"Data represent information from nearest [COLUMN K], [COLUMN J], which includes [all COLUMN Bs for COLUMN J]"
AK547,St. George,Anĝaaxchaluxˆ,Alaska,US,56.57480697,-169.6103589,community,1600000US0265800,St. George city,Incorporated place,"Data represent information from nearest [COLUMN K], [COLUMN J], which includes [all COLUMN Bs for COLUMN J]"
AK340,Saint Mary's,Negeqliq,Alaska,US,62.053,-163.166,community,1600000US0266140,St. Mary's city,Incorporated place,"Data represent information from nearest [COLUMN K], [COLUMN J], which includes [all COLUMN Bs for COLUMN J]"
AK341,Saint Michael,Taciq,Alaska,US,63.478,-162.039,community,1600000US0266360,St. Michael city,Incorporated place,"Data represent information from nearest [COLUMN K], [COLUMN J], which includes [all COLUMN Bs for COLUMN J]"
AK342,Saint Paul,Tanax̂ Amix̂,Alaska,US,57.1221,-170.276,community,1600000US0266470,St. Paul city,Incorporated place,"Data represent information from nearest [COLUMN K], [COLUMN J], which includes [all COLUMN Bs for COLUMN J]"
AK343,Salamatof,,Alaska,US,60.5878,-151.326,community,1600000US0266510,Salamatof CDP,Census designated place,"Data represent information from nearest [COLUMN K], [COLUMN J], which includes [all COLUMN Bs for COLUMN J]"
AK344,Salcha,Soł Chaget,Alaska,US,64.5288,-146.899,community,1600000US0266550,Salcha CDP,Census designated place,"Data represent information from nearest [COLUMN K], [COLUMN J], which includes [all COLUMN Bs for COLUMN J]"
AK347,Sand Point,,Alaska,US,55.3397,-160.497,community,1600000US0267020,Sand Point city,Incorporated place,"Data represent information from nearest [COLUMN K], [COLUMN J], which includes [all COLUMN Bs for COLUMN J]"
AK349,Savoonga,Sivunga,Alaska,US,63.6904,-170.481,community,1600000US0267460,Savoonga city,Incorporated place,"Data represent information from nearest [COLUMN K], [COLUMN J], which includes [all COLUMN Bs for COLUMN J]"
AK350,Saxman,,Alaska,US,55.3183,-131.596,community,1600000US0267570,Saxman city,Incorporated place,"Data represent information from nearest [COLUMN K], [COLUMN J], which includes [all COLUMN Bs for COLUMN J]"
AK351,Scammon Bay,Marayaarmiut,Alaska,US,61.8428,-165.582,community,1600000US0267680,Scammon Bay city,Incorporated place,"Data represent information from nearest [COLUMN K], [COLUMN J], which includes [all COLUMN Bs for COLUMN J]"
AK352,Selawik,Siiḷivik / Akuliġaq,Alaska,US,66.6039,-160.007,community,1600000US0268230,Selawik city,Incorporated place,"Data represent information from nearest [COLUMN K], [COLUMN J], which includes [all COLUMN Bs for COLUMN J]"
AK353,Seldovia,Angagkitaqnuuq,Alaska,US,59.438,-151.711,community,1600000US0268340,Seldovia city,Incorporated place,"Data represent information from nearest [COLUMN K], [COLUMN J], which includes [all COLUMN Bs for COLUMN J]"
AK543,Seldovia Village,,Alaska,US,59.47161371,-151.6547689,community,1600000US0268370,Seldovia Village CDP,Census designated place,"Data represent information from nearest [COLUMN K], [COLUMN J], which includes [all COLUMN Bs for COLUMN J]"
AK354,Seward,Qutalleq,Alaska,US,60.1043,-149.442,community,1600000US0268560,Seward city,Incorporated place,"Data represent information from nearest [COLUMN K], [COLUMN J], which includes [all COLUMN Bs for COLUMN J]"
AK355,Shageluk,Edixi,Alaska,US,62.6822,-159.562,community,1600000US0268670,Shageluk city,Incorporated place,"Data represent information from nearest [COLUMN K], [COLUMN J], which includes [all COLUMN Bs for COLUMN J]"
AK356,Shaktoolik,Saktuliq,Alaska,US,64.35,-161.183,community,1600000US0268890,Shaktoolik city,Incorporated place,"Data represent information from nearest [COLUMN K], [COLUMN J], which includes [all COLUMN Bs for COLUMN J]"
AK358,Shishmaref,Qigiqtaq,Alaska,US,66.2567,-166.072,community,1600000US0269770,Shishmaref city,Incorporated place,"Data represent information from nearest [COLUMN K], [COLUMN J], which includes [all COLUMN Bs for COLUMN J]"
AK359,Shungnak,Isiŋnaq / Nuurviuraq,Alaska,US,66.888,-157.136,community,1600000US0270100,Shungnak city,Incorporated place,"Data represent information from nearest [COLUMN K], [COLUMN J], which includes [all COLUMN Bs for COLUMN J]"
AK544,Silver Springs,,Alaska,US,62.01375926,-145.3359532,community,1600000US0270320,Silver Springs CDP,Census designated place,"Data represent information from nearest [COLUMN K], [COLUMN J], which includes [all COLUMN Bs for COLUMN J]"
AK361,Skagway,,Alaska,US,59.4583,-135.314,community,1600000US0270760,Skagway CDP,Census designated place,"Data represent information from nearest [COLUMN K], [COLUMN J], which includes [all COLUMN Bs for COLUMN J]"
AK362,Skwentna,,Alaska,US,61.9649,-151.158,community,1600000US0270870,Skwentna CDP,Census designated place,"Data represent information from nearest [COLUMN K], [COLUMN J], which includes [all COLUMN Bs for COLUMN J]"
AK363,Slana,Stl’aa Caegge,Alaska,US,62.707,-143.9697,community,1600000US0270930,Slana CDP,Census designated place,"Data represent information from nearest [COLUMN K], [COLUMN J], which includes [all COLUMN Bs for COLUMN J]"
AK365,Sleetmute,Cellitemiut,Alaska,US,61.7025,-157.17,community,1600000US0271090,Sleetmute CDP,Census designated place,"Data represent information from nearest [COLUMN K], [COLUMN J], which includes [all COLUMN Bs for COLUMN J]"
AK366,Soldotna,,Alaska,US,60.4878,-151.058,community,1600000US0271640,Soldotna city,Incorporated place,"Data represent information from nearest [COLUMN K], [COLUMN J], which includes [all COLUMN Bs for COLUMN J]"
AK545,South Lakes,,Alaska,US,61.59029139,-149.3165037,community,1600000US0272135,South Lakes CDP,Census designated place,"Data represent information from nearest [COLUMN K], [COLUMN J], which includes [all COLUMN Bs for COLUMN J]"
AK368,South Naknek,Qinuyang,Alaska,US,58.7155,-156.998,community,1600000US0272190,South Naknek CDP,Census designated place,"Data represent information from nearest [COLUMN K], [COLUMN J], which includes [all COLUMN Bs for COLUMN J]"
AK546,South Van Horn,,Alaska,US,64.80747328,-147.7740135,community,1600000US0272230,South Van Horn CDP,Census designated place,"Data represent information from nearest [COLUMN K], [COLUMN J], which includes [all COLUMN Bs for COLUMN J]"
AK372,Stebbins,Tapraq,Alaska,US,63.5222,-162.288,community,1600000US0272960,Stebbins city,Incorporated place,"Data represent information from nearest [COLUMN K], [COLUMN J], which includes [all COLUMN Bs for COLUMN J]"
AK548,Steele Creek,,Alaska,US,64.90280549,-147.5241167,community,1600000US0272985,Steele Creek CDP,Census designated place,"Data represent information from nearest [COLUMN K], [COLUMN J], which includes [all COLUMN Bs for COLUMN J]"
AK373,Sterling,,Alaska,US,60.5381,-150.758,community,1600000US0273070,Sterling CDP,Census designated place,"Data represent information from nearest [COLUMN K], [COLUMN J], which includes [all COLUMN Bs for COLUMN J]"
AK374,Stevens Village,Denyeet,Alaska,US,66.0063,-149.091,community,1600000US0273290,Stevens Village CDP,Census designated place,"Data represent information from nearest [COLUMN K], [COLUMN J], which includes [all COLUMN Bs for COLUMN J]"
AK375,Stony River,Gidighuyghatno’ Xidochagg Qay / K'qizaghetnu,Alaska,US,61.7831,-156.588,community,1600000US0273400,Stony River CDP,Census designated place,"Data represent information from nearest [COLUMN K], [COLUMN J], which includes [all COLUMN Bs for COLUMN J]"
AK377,Sunrise,,Alaska,US,60.8921,-149.425,community,1600000US0273950,Sunrise CDP,Census designated place,"Data represent information from nearest [COLUMN K], [COLUMN J], which includes [all COLUMN Bs for COLUMN J]"
AK10,Alexander Creek,,Alaska,US,61.4171,-150.593,community,1600000US0274340,Susitna CDP,Census designated place,"Data represent information from nearest [COLUMN K], [COLUMN J], which includes [all COLUMN Bs for COLUMN J]"
AK379,Susitna Station,,Alaska,US,61.5432,-150.5162,community,1600000US0274340,Susitna CDP,Census designated place,"Data represent information from nearest [COLUMN K], [COLUMN J], which includes [all COLUMN Bs for COLUMN J]"
AK487,Susitna,,Alaska,US,61.57861,-150.609051,community,1600000US0274340,Susitna CDP,Census designated place,"Data represent information from nearest [COLUMN K], [COLUMN J], which includes [all COLUMN Bs for COLUMN J]"
AK549,Susitna North,,Alaska,US,62.13218903,-150.0322333,community,1600000US0274350,Susitna North CDP,Census designated place,"Data represent information from nearest [COLUMN K], [COLUMN J], which includes [all COLUMN Bs for COLUMN J]"
AK119,Eska,,Alaska,US,61.7381,-148.906,community,1600000US0274525,Sutton-Alpine CDP,Census designated place,"Data represent information from nearest [COLUMN K], [COLUMN J], which includes [all COLUMN Bs for COLUMN J]"
AK171,Jonesville,,Alaska,US,61.7311,-148.933,community,1600000US0274525,Sutton-Alpine CDP,Census designated place,"Data represent information from nearest [COLUMN K], [COLUMN J], which includes [all COLUMN Bs for COLUMN J]"
AK380,Sutton,,Alaska,US,61.7114,-148.894,community,1600000US0274525,Sutton-Alpine CDP,Census designated place,"Data represent information from nearest [COLUMN K], [COLUMN J], which includes [all COLUMN Bs for COLUMN J]"
AK550,Sutton-Alpine,,Alaska,US,61.71677346,-148.8844082,community,1600000US0274525,Sutton-Alpine CDP,Census designated place,"Data represent information from nearest [COLUMN K], [COLUMN J], which includes [all COLUMN Bs for COLUMN J]"
AK381,Takotna,Tochotno’,Alaska,US,62.9886,-156.064,community,1600000US0274610,Takotna CDP,Census designated place,"Data represent information from nearest [COLUMN K], [COLUMN J], which includes [all COLUMN Bs for COLUMN J]"
AK382,Talkeetna,K'dalkitnu,Alaska,US,62.3239,-150.109,community,1600000US0274830,Talkeetna CDP,Census designated place,"Data represent information from nearest [COLUMN K], [COLUMN J], which includes [all COLUMN Bs for COLUMN J]"
AK383,Tanacross,Taats’altęy,Alaska,US,63.378,-143.356,community,1600000US0275050,Tanacross CDP,Census designated place,"Data represent information from nearest [COLUMN K], [COLUMN J], which includes [all COLUMN Bs for COLUMN J]"
AK551,Tanaina,,Alaska,US,61.61413931,-149.4508059,community,1600000US0275077,Tanaina CDP,Census designated place,"Data represent information from nearest [COLUMN K], [COLUMN J], which includes [all COLUMN Bs for COLUMN J]"
AK384,Tanana,Hohudodetlaatl Denh,Alaska,US,65.1719,-152.079,community,1600000US0275160,Tanana city,Incorporated place,"Data represent information from nearest [COLUMN K], [COLUMN J], which includes [all COLUMN Bs for COLUMN J]"
AK116,Ellamar,,Alaska,US,60.8961,-146.708,community,1600000US0275380,Tatitlek CDP,Census designated place,"Data represent information from nearest [COLUMN K], [COLUMN J], which includes [all COLUMN Bs for COLUMN J]"
AK386,Tatitlek,Taatiilaaq,Alaska,US,60.8647,-146.679,community,1600000US0275380,Tatitlek CDP,Census designated place,"Data represent information from nearest [COLUMN K], [COLUMN J], which includes [all COLUMN Bs for COLUMN J]"
AK387,Tazlina,Tezdlen Na’,Alaska,US,62.0305,-145.416,community,1600000US0275480,Tazlina CDP,Census designated place,"Data represent information from nearest [COLUMN K], [COLUMN J], which includes [all COLUMN Bs for COLUMN J]"
AK390,Teller,Tala,Alaska,US,65.2636,-166.361,community,1600000US0275930,Teller city,Incorporated place,"Data represent information from nearest [COLUMN K], [COLUMN J], which includes [all COLUMN Bs for COLUMN J]"
AK392,Tenakee Springs,Tʼanag̱eey / Tlaagoowu Aan,Alaska,US,57.7808,-135.219,community,1600000US0276260,Tenakee Springs city,Incorporated place,"Data represent information from nearest [COLUMN K], [COLUMN J], which includes [all COLUMN Bs for COLUMN J]"
AK393,Tetlin,Teełąy,Alaska,US,63.1373,-142.5208,community,1600000US0276590,Tetlin CDP,Census designated place,"Data represent information from nearest [COLUMN K], [COLUMN J], which includes [all COLUMN Bs for COLUMN J]"
AK396,Thorne Bay,,Alaska,US,55.7274,-132.471,community,1600000US0277140,Thorne Bay city,Incorporated place,"Data represent information from nearest [COLUMN K], [COLUMN J], which includes [all COLUMN Bs for COLUMN J]"
AK398,Togiak,Tuyuryaq,Alaska,US,59.0619,-160.376,community,1600000US0277690,Togiak city,Incorporated place,"Data represent information from nearest [COLUMN K], [COLUMN J], which includes [all COLUMN Bs for COLUMN J]"
AK399,Tok,,Alaska,US,63.3366,-142.985,community,1600000US0277800,Tok CDP,Census designated place,"Data represent information from nearest [COLUMN K], [COLUMN J], which includes [all COLUMN Bs for COLUMN J]"
AK401,Toksook Bay,Nunakauyaq,Alaska,US,60.5303,-165.102,community,1600000US0278240,Toksook Bay city,Incorporated place,"Data represent information from nearest [COLUMN K], [COLUMN J], which includes [all COLUMN Bs for COLUMN J]"
AK412,Umkumiute,,Alaska,US,60.4983,-165.199,community,1600000US0278240,Toksook Bay city,Incorporated place,"Data represent information from nearest [COLUMN K], [COLUMN J], which includes [all COLUMN Bs for COLUMN J]"
AK552,Tolsona,,Alaska,US,62.09902686,-146.0444103,community,1600000US0278297,Tolsona CDP,Census designated place,"Data represent information from nearest [COLUMN K], [COLUMN J], which includes [all COLUMN Bs for COLUMN J]"
AK403,Tonsina,,Alaska,US,61.6558,-145.175,community,1600000US0278350,Tonsina CDP,Census designated place,"Data represent information from nearest [COLUMN K], [COLUMN J], which includes [all COLUMN Bs for COLUMN J]"
AK553,Trapper Creek,,Alaska,US,62.31138643,-150.2458048,community,1600000US0278680,Trapper Creek CDP,Census designated place,"Data represent information from nearest [COLUMN K], [COLUMN J], which includes [all COLUMN Bs for COLUMN J]"
AK404,Tuluksak,Tuulkessaaq,Alaska,US,61.1025,-160.962,community,1600000US0278790,Tuluksak CDP,Census designated place,"Data represent information from nearest [COLUMN K], [COLUMN J], which includes [all COLUMN Bs for COLUMN J]"
AK405,Tuntutuliak,Tuntutuliaq,Alaska,US,60.3397,-162.669,community,1600000US0279120,Tuntutuliak CDP,Census designated place,"Data represent information from nearest [COLUMN K], [COLUMN J], which includes [all COLUMN Bs for COLUMN J]"
AK277,Nilikluguk,,Alaska,US,60.6501,-165.15,community,1600000US0279230,Tununak CDP,Census designated place,"Data represent information from nearest [COLUMN K], [COLUMN J], which includes [all COLUMN Bs for COLUMN J]"
AK406,Tununak,Tununeq,Alaska,US,60.5855,-165.256,community,1600000US0279230,Tununak CDP,Census designated place,"Data represent information from nearest [COLUMN K], [COLUMN J], which includes [all COLUMN Bs for COLUMN J]"
AK407,Twin Hills,Ingricuar,Alaska,US,59.0792,-160.275,community,1600000US0279780,Twin Hills CDP,Census designated place,"Data represent information from nearest [COLUMN K], [COLUMN J], which includes [all COLUMN Bs for COLUMN J]"
AK436,Two Rivers,,Alaska,US,64.8767,-147.0384,community,1600000US0279830,Two Rivers CDP,Census designated place,"Data represent information from nearest [COLUMN K], [COLUMN J], which includes [all COLUMN Bs for COLUMN J]"
AK408,Tyonek,Qaggeyshlat,Alaska,US,61.0681,-151.137,community,1600000US0279890,Tyonek CDP,Census designated place,"Data represent information from nearest [COLUMN K], [COLUMN J], which includes [all COLUMN Bs for COLUMN J]"
AK409,Ugashik,Ugaasaq,Alaska,US,57.513,-157.397,community,1600000US0280100,Ugashik CDP,Census designated place,"Data represent information from nearest [COLUMN K], [COLUMN J], which includes [all COLUMN Bs for COLUMN J]"
AK414,Unalakleet,Uŋalaqłiit,Alaska,US,63.873,-160.788,community,1600000US0280660,Unalakleet city,Incorporated place,"Data represent information from nearest [COLUMN K], [COLUMN J], which includes [all COLUMN Bs for COLUMN J]"
AK415,Unalaska,Iluulux̂,Alaska,US,53.8733,-166.533,community,1600000US0280770,Unalaska city,Incorporated place,"Data represent information from nearest [COLUMN K], [COLUMN J], which includes [all COLUMN Bs for COLUMN J]"
AK178,Upper Kalskag,Qalqaq,Alaska,US,61.5391,-160.306,community,1600000US0281320,Upper Kalskag city,Incorporated place,"Data represent information from nearest [COLUMN K], [COLUMN J], which includes [all COLUMN Bs for COLUMN J]"
AK418,Utqiaġvik,Barrow,Alaska,US,71.2905,-156.789,community,1600000US0281920,Utqiaġvik city,Incorporated place,"Data represent information from nearest [COLUMN K], [COLUMN J], which includes [all COLUMN Bs for COLUMN J]"
AK421,Valdez,Suacit,Alaska,US,61.1369,-146.3471,community,1600000US0282200,Valdez city,Incorporated place,"Data represent information from nearest [COLUMN K], [COLUMN J], which includes [all COLUMN Bs for COLUMN J]"
AK422,Venetie,Vįįhtąįį,Alaska,US,67.0139,-146.419,community,1600000US0282420,Venetie CDP,Census designated place,"Data represent information from nearest [COLUMN K], [COLUMN J], which includes [all COLUMN Bs for COLUMN J]"
AK423,Wainwright,Ulġuniq,Alaska,US,70.6369,-160.038,community,1600000US0282750,Wainwright city,Incorporated place,"Data represent information from nearest [COLUMN K], [COLUMN J], which includes [all COLUMN Bs for COLUMN J]"
AK424,Wales,Kiŋigin,Alaska,US,65.6097,-168.0876,community,1600000US0282860,Wales city,Incorporated place,"Data represent information from nearest [COLUMN K], [COLUMN J], which includes [all COLUMN Bs for COLUMN J]"
AK426,Wasilla,,Alaska,US,61.5814,-149.439,community,1600000US0283080,Wasilla city,Incorporated place,"Data represent information from nearest [COLUMN K], [COLUMN J], which includes [all COLUMN Bs for COLUMN J]"
AK427,Whale Pass,,Alaska,US,56.1,-133.167,community,1600000US0284000,Whale Pass city,Incorporated place,"Data represent information from nearest [COLUMN K], [COLUMN J], which includes [all COLUMN Bs for COLUMN J]"
AK428,White Mountain,Nasirvik,Alaska,US,64.6813,-163.406,community,1600000US0284070,White Mountain city,Incorporated place,"Data represent information from nearest [COLUMN K], [COLUMN J], which includes [all COLUMN Bs for COLUMN J]"
AK554,Whitestone,,Alaska,US,64.15358725,-145.8863172,community,1600000US0284120,Whitestone CDP,Census designated place,"Data represent information from nearest [COLUMN K], [COLUMN J], which includes [all COLUMN Bs for COLUMN J]"
AK555,Whitestone Logging Camp,,Alaska,US,58.08314156,-135.4366721,community,1600000US0284200,Whitestone Logging Camp CDP,Census designated place,"Data represent information from nearest [COLUMN K], [COLUMN J], which includes [all COLUMN Bs for COLUMN J]"
AK429,Whittier,,Alaska,US,60.773,-148.684,community,1600000US0284510,Whittier city,Incorporated place,"Data represent information from nearest [COLUMN K], [COLUMN J], which includes [all COLUMN Bs for COLUMN J]"
AK233,Lucky Shot Landing,,Alaska,US,61.7751,-149.408,community,1600000US0285280,Willow CDP,Census designated place,"Data represent information from nearest [COLUMN K], [COLUMN J], which includes [all COLUMN Bs for COLUMN J]"
AK430,Willow,,Alaska,US,61.7472,-150.037,community,1600000US0285280,Willow CDP,Census designated place,"Data represent information from nearest [COLUMN K], [COLUMN J], which includes [all COLUMN Bs for COLUMN J]"
AK556,Willow Creek,,Alaska,US,61.81230926,-145.1944156,community,1600000US0285290,Willow Creek CDP,Census designated place,"Data represent information from nearest [COLUMN K], [COLUMN J], which includes [all COLUMN Bs for COLUMN J]"
AK431,Wiseman,,Alaska,US,67.41,-150.107,community,1600000US0285610,Wiseman CDP,Census designated place,"Data represent information from nearest [COLUMN K], [COLUMN J], which includes [all COLUMN Bs for COLUMN J]"
AK432,Womens Bay,,Alaska,US,57.7099,-152.586,community,1600000US0285680,Womens Bay CDP,Census designated place,"Data represent information from nearest [COLUMN K], [COLUMN J], which includes [all COLUMN Bs for COLUMN J]"
AK435,Yakutat,Yaakwdáat,Alaska,US,59.5469,-139.727,community,1600000US0286490,Yakutat CDP,Census designated place,"Data represent information from nearest [COLUMN K], [COLUMN J], which includes [all COLUMN Bs for COLUMN J]"